{"version": 0.6, "generator": "Overpass API 0.7.61.5 4133829e", "osm3s": {"timestamp_osm_base": "2023-12-07T18:58:44Z", "copyright": "The data included in this document is from www.openstreetmap.org. The data is made available under ODbL."}, "elements": [{"type": "node", "id": 29760210, "lat": 53.5453427, "lon": 8.5758591}, {"type": "node", "id": 192524320, "lat": 53.5406454, "lon": 8.5811479, "tags": {"addr:city": "Bremerhaven", "addr:country": "DE", "addr:housenumber": "1-5", "addr:postcode": "27568", "addr:street": "Linzer Stra\u00dfe", "amenity": "theatre", "emergency": "defibrillator", "name": "Stadttheater Bremerhaven", "toilets:wheelchair": "yes", "website": "https://www.stadttheaterbremerhaven.de/", "wheelchair": "limited", "wikidata": "Q1355204"}}, {"type": "node", "id": 250800672, "lat": 53.1056891, "lon": 8.8466787, "tags": {"amenity": "library", "contact:email": "juridicum@suub.uni-bremen.de", "contact:website": "http://www.suub.uni-bremen.de/", "description": "Lagebeschrieb: Im Geb\u00e4ude GW1 Block C", "fixme": "ISIL number", "name": "Juridicum", "toilets:wheelchair": "no", "wheelchair": "yes"}}, {"type": "node", "id": 454156584, "lat": 53.5385344, "lon": 8.5850007}, {"type": "node", "id": 454156588, "lat": 53.5392434, "lon": 8.5859668}, {"type": "node", "id": 454156593, "lat": 53.5391234, "lon": 8.5861631}, {"type": "node", "id": 454156598, "lat": 53.538642, "lon": 8.5855513}, {"type": "node", "id": 516455160, "lat": 53.5395691, "lon": 8.5832537}, {"type": "node", "id": 516455162, "lat": 53.5396708, "lon": 8.5830782}, {"type": "node", "id": 516455164, "lat": 53.5397709, "lon": 8.5832424}, {"type": "node", "id": 516455166, "lat": 53.5396692, "lon": 8.5834179}, {"type": "node", "id": 516455173, "lat": 53.5400283, "lon": 8.5826526}, {"type": "node", "id": 516455192, "lat": 53.5405227, "lon": 8.5845715}, {"type": "node", "id": 516455215, "lat": 53.54039, "lon": 8.5823166}, {"type": "node", "id": 516455217, "lat": 53.5402059, "lon": 8.5824953}, {"type": "node", "id": 516455219, "lat": 53.5403913, "lon": 8.583036}, {"type": "node", "id": 516455221, "lat": 53.5405753, "lon": 8.5828573}, {"type": "node", "id": 516455222, "lat": 53.5406315, "lon": 8.5829671}, {"type": "node", "id": 516455224, "lat": 53.5405985, "lon": 8.5830961}, {"type": "node", "id": 516455226, "lat": 53.5405195, "lon": 8.5830389}, {"type": "node", "id": 516455228, "lat": 53.5405525, "lon": 8.5829099}, {"type": "node", "id": 516455233, "lat": 53.5407233, "lon": 8.5820126}, {"type": "node", "id": 516455235, "lat": 53.5409275, "lon": 8.5826272}, {"type": "node", "id": 516455240, "lat": 53.5407709, "lon": 8.5833108}, {"type": "node", "id": 516455242, "lat": 53.540659, "lon": 8.5832322}, {"type": "node", "id": 516455248, "lat": 53.540867, "lon": 8.5826841}, {"type": "node", "id": 516455250, "lat": 53.5408999, "lon": 8.5827898}, {"type": "node", "id": 516455252, "lat": 53.5387893, "lon": 8.580927}, {"type": "node", "id": 516455254, "lat": 53.5390638, "lon": 8.5817451}, {"type": "node", "id": 516455256, "lat": 53.5389383, "lon": 8.5818461}, {"type": "node", "id": 516455258, "lat": 53.5386889, "lon": 8.5811612}, {"type": "node", "id": 516455259, "lat": 53.538624, "lon": 8.5812438}, {"type": "node", "id": 516455261, "lat": 53.5385085, "lon": 8.5809874}, {"type": "node", "id": 516455263, "lat": 53.5385922, "lon": 8.5808807}, {"type": "node", "id": 516455264, "lat": 53.5386774, "lon": 8.5810697}, {"type": "node", "id": 516459461, "lat": 53.5406415, "lon": 8.5832502}, {"type": "node", "id": 560245553, "lat": 53.5417355, "lon": 8.5821942, "tags": {"amenity": "toilets", "fee": "yes", "toilets:wheelchair": "yes", "unisex": "yes", "wheelchair": "yes"}}, {"type": "node", "id": 564989228, "lat": 53.5388305, "lon": 8.5851495, "tags": {"access": "yes", "amenity": "parking", "fee": "yes", "parking": "surface"}}, {"type": "node", "id": 583834260, "lat": 53.0724796, "lon": 8.7924881, "tags": {"amenity": "library", "check_date:internet_access": "2021-08-13", "check_date:opening_hours": "2022-10-21", "email": "info@tbts.hs-bremen.de", "fax": "+49 421 59053286", "internet_access": "wlan", "name": "TB Technik und Sozialwesen", "official_name": "Teilbibliothek f\u00fcr Technik und Sozialwesen", "opening_hours:signed": "no", "phone": "+49 421 59053291", "ref:isil": "unknown", "website": "http://tbts.teilbibliotheken-bremen.de", "wheelchair": "limited"}}, {"type": "node", "id": 661411590, "lat": 53.5396372, "lon": 8.5815416}, {"type": "node", "id": 661411591, "lat": 53.5398051, "lon": 8.5813689}, {"type": "node", "id": 661411592, "lat": 53.540113, "lon": 8.582276}, {"type": "node", "id": 679115692, "lat": 53.5418628, "lon": 8.5820313, "tags": {"addr:city": "Bremerhaven", "addr:country": "DE", "addr:housenumber": "1", "addr:postcode": "27568", "addr:street": "Schleswiger Stra\u00dfe", "amenity": "pub", "indoor_seating": "yes", "name": "Stresemann", "opening_hours": "Tu-Su 17:00-24:00+", "outdoor_seating": "no", "wheelchair": "yes"}}, {"type": "node", "id": 679115693, "lat": 53.5419725, "lon": 8.5819545, "tags": {"addr:city": "Bremerhaven", "addr:country": "DE", "addr:housenumber": "3", "addr:postcode": "27568", "addr:street": "Schleswiger Stra\u00dfe", "air_conditioning": "no", "amenity": "restaurant", "name": "Restaurant Finger", "smoking": "no"}}, {"type": "node", "id": 690234956, "lat": 53.5401371, "lon": 8.5821398, "tags": {"addr:city": "Bremerhaven", "addr:country": "DE", "addr:housenumber": "5", "addr:postcode": "27568", "addr:street": "Karlsburg", "amenity": "bar", "name": "Luna", "opening_hours": "Mo-Fr 17:00+; Sa,Su 18:00+", "toilets:wheelchair": "yes", "wheelchair": "yes"}}, {"type": "node", "id": 690234961, "lat": 53.5403643, "lon": 8.582352, "tags": {"addr:city": "Bremerhaven", "addr:country": "DE", "addr:housenumber": "4", "addr:postcode": "27568", "addr:street": "Karlsburg", "amenity": "cafe", "indoor_seating": "yes", "name": "Caspar David & Co.", "opening_hours": "Mo-Sa 11:30-24:00+", "outdoor_seating": "yes", "toilets:wheelchair": "no", "wheelchair": "no"}}, {"type": "node", "id": 690234972, "lat": 53.5407955, "lon": 8.5823651, "tags": {"addr:city": "Bremerhaven", "addr:country": "DE", "addr:housenumber": "1", "addr:postcode": "27568", "addr:street": "Theodor-Heuss-Platz", "amenity": "restaurant", "diet:vegan": "yes", "diet:vegetarian": "yes", "name": "Servus", "opening_hours": "Tu-Fr 16:30+; Sa,Su 12:00+", "toilets:wheelchair": "no", "wheelchair": "limited"}}, {"type": "node", "id": 690234975, "lat": 53.5404595, "lon": 8.5845922, "tags": {"addr:city": "Bremerhaven", "addr:country": "DE", "addr:housenumber": "25", "addr:postcode": "27568", "addr:street": "F\u00e4hrstra\u00dfe", "air_conditioning": "no", "amenity": "fast_food", "cuisine": "greek", "indoor_seating": "yes", "name": "Niko's Komb\u00fcse", "opening_hours": "Mo-Sa 11:00-20:00", "outdoor_seating": "no", "payment:credit_cards": "no", "payment:debit_cards": "no", "smoking": "no", "wheelchair": "limited"}}, {"type": "node", "id": 690234988, "lat": 53.5410916, "lon": 8.5821, "tags": {"amenity": "post_box", "check_date": "2022-05-01", "collection_times": "Mo-Sa 12:00", "operator": "Deutsche Post", "operator:wikidata": "Q157645", "ref": "Theodor-Heuss-Platz, 27568 Bremerhaven"}}, {"type": "node", "id": 690235018, "lat": 53.5409775, "lon": 8.5819001, "tags": {"amenity": "taxi", "name": "Taxihalteplatz Theodor-Heuss-Platz"}}, {"type": "node", "id": 694065086, "lat": 53.5405491, "lon": 8.5852101}, {"type": "node", "id": 694065087, "lat": 53.5406119, "lon": 8.5852607}, {"type": "node", "id": 694065090, "lat": 53.5405763, "lon": 8.5853856}, {"type": "node", "id": 694065091, "lat": 53.5405135, "lon": 8.585335}, {"type": "node", "id": 696590008, "lat": 53.5412757, "lon": 8.5799356}, {"type": "node", "id": 696590014, "lat": 53.5414262, "lon": 8.5809888}, {"type": "node", "id": 696590015, "lat": 53.5411161, "lon": 8.5800918}, {"type": "node", "id": 803855755, "lat": 53.5411351, "lon": 8.58619, "tags": {"amenity": "bench", "backrest": "no", "check_date": "2022-06-09", "colour": "green", "material": "metal"}}, {"type": "node", "id": 803855764, "lat": 53.5414554, "lon": 8.5864099, "tags": {"amenity": "bench", "backrest": "no", "check_date": "2022-06-09", "colour": "green", "material": "metal"}}, {"type": "node", "id": 803855771, "lat": 53.5416611, "lon": 8.5865118, "tags": {"amenity": "bench", "backrest": "no", "check_date": "2022-06-09", "colour": "green", "material": "metal"}}, {"type": "node", "id": 828059556, "lat": 53.0736458, "lon": 8.8103097, "tags": {"amenity": "library", "contact:email": "info@tbm.hfk-bremen.de", "contact:website": "http://www.suub.uni-bremen.de/standorte/musik/", "name": "TB Musik", "official_name": "Teilbibiliothek f\u00fcr Musik", "toilets:wheelchair": "yes", "wheelchair": "yes"}}, {"type": "node", "id": 828484203, "lat": 53.0977944, "lon": 8.7689939, "tags": {"addr:city": "Bremen", "addr:country": "DE", "addr:housenumber": "8", "addr:postcode": "28217", "addr:street": "Am Speicher XI", "amenity": "library", "contact:email": "tb-kunst@suub.uni-bremen.de", "contact:website": "https://suub.uni-bremen.de/standorte/kunst/", "internet_access": "wlan", "internet_access:ssid": "eduroam", "level": "3", "name": "Teilbibiliothek f\u00fcr Kunst", "phone": "+49 421 95951209", "short_name": "TB Kunst", "wheelchair": "yes"}}, {"type": "node", "id": 828484204, "lat": 53.106525, "lon": 8.8523079, "tags": {"access": "permissive", "amenity": "library", "contact:website": "http://www.suub.uni-bremen.de/", "internet_access": "wlan", "name": "BB Mathematik/Informatik", "official_name": "Bereichsbibliothek 19 f\u00fcr Mathematik, Informatik", "opening_hours": "\"Zugang mit Schl\u00fcssel, im Fachbereich erfragen\"", "wheelchair": "yes"}}, {"type": "node", "id": 828484206, "lat": 53.1050633, "lon": 8.8539516, "tags": {"amenity": "library", "email": "suubb11@uni-bremen.de", "name": "BB Wirtschaftswissenschaft", "official_name": "Bereichsbibliothek 11 f\u00fcr Wirtschaftswissenschaft", "opening_hours": "Mo-Fr 09:00-18:00; Sa, Su, PH off", "phone": "+49 421 2185 9640", "website": "https://www.suub.uni-bremen.de/standorte/bb-wirtschaftswissenschaft/"}}, {"type": "node", "id": 828484207, "lat": 53.0695992, "lon": 8.8070801, "tags": {"amenity": "library", "email": "tb-werderstr@suub.uni-bremen.de", "fax": "+49-421-59054674", "name": "TB Wirtschaft und Nautik", "official_name": "Teilbibliothek f\u00fcr Wirtschaft und Nautik", "phone": "+49-421-59054120", "ref:isil": "unknown", "website": "https://www.suub.uni-bremen.de/", "wheelchair": "yes"}}, {"type": "node", "id": 913845372, "lat": 53.541616, "lon": 8.5844261, "tags": {"amenity": "recycling", "recycling:glass_bottles": "yes", "recycling_type": "container"}}, {"type": "node", "id": 923896839, "lat": 53.5405756, "lon": 8.5855525}, {"type": "node", "id": 923896840, "lat": 53.540632, "lon": 8.5853132}, {"type": "node", "id": 923896841, "lat": 53.5408213, "lon": 8.5857168}, {"type": "node", "id": 923896842, "lat": 53.5408778, "lon": 8.5854776}, {"type": "node", "id": 993783277, "lat": 53.540935, "lon": 8.5832454, "tags": {"bench": "yes", "bus": "yes", "covered": "no", "departures_board": "yes", "highway": "bus_stop", "name": "Hochschule BHV / Stadttheater", "network": "Verkehrsverbund Bremen/Niedersachsen", "network:short": "VBN", "network:wikidata": "Q1306245", "network:wikipedia": "de:Verkehrsverbund Bremen/Niedersachsen", "public_transport": "stop_position", "shelter": "yes", "stop_id": "46101", "wheelchair": "yes"}}, {"type": "node", "id": 1046428687, "lat": 53.5414375, "lon": 8.5797771}, {"type": "node", "id": 1086741791, "lat": 53.5412533, "lon": 8.5843636}, {"type": "node", "id": 1184831680, "lat": 53.5414588, "lon": 8.584887}, {"type": "node", "id": 1184831681, "lat": 53.5413982, "lon": 8.585137}, {"type": "node", "id": 1184831683, "lat": 53.5408482, "lon": 8.5840822}, {"type": "node", "id": 1184831688, "lat": 53.5410122, "lon": 8.5834318}, {"type": "node", "id": 1184831692, "lat": 53.541139, "lon": 8.584959}, {"type": "node", "id": 1184831696, "lat": 53.5411996, "lon": 8.584709}, {"type": "node", "id": 1193282978, "lat": 53.5423288, "lon": 8.5865298}, {"type": "node", "id": 1193282999, "lat": 53.5422037, "lon": 8.5865738}, {"type": "node", "id": 1193283019, "lat": 53.5422964, "lon": 8.5862683}, {"type": "node", "id": 1193283021, "lat": 53.5421712, "lon": 8.5863123}, {"type": "node", "id": 1194424518, "lat": 53.5420898, "lon": 8.5862141}, {"type": "node", "id": 1194424519, "lat": 53.541836, "lon": 8.5861057}, {"type": "node", "id": 1194424522, "lat": 53.5418604, "lon": 8.5859435}, {"type": "node", "id": 1194424561, "lat": 53.5421142, "lon": 8.5860519}, {"type": "node", "id": 1194427016, "lat": 53.5416224, "lon": 8.5859856}, {"type": "node", "id": 1194427018, "lat": 53.5415846, "lon": 8.5861923}, {"type": "node", "id": 1194427038, "lat": 53.5417206, "lon": 8.5860365}, {"type": "node", "id": 1194427043, "lat": 53.5416828, "lon": 8.5862432}, {"type": "node", "id": 1194436470, "lat": 53.5401678, "lon": 8.5866726}, {"type": "node", "id": 1194436486, "lat": 53.5402461, "lon": 8.5865785}, {"type": "node", "id": 1194436488, "lat": 53.5402173, "lon": 8.5867046}, {"type": "node", "id": 1194436489, "lat": 53.5401966, "lon": 8.5865465}, {"type": "node", "id": 1244655877, "lat": 53.5409928, "lon": 8.5841841}, {"type": "node", "id": 1244661230, "lat": 53.5413173, "lon": 8.581066}, {"type": "node", "id": 1244661232, "lat": 53.5410466, "lon": 8.5813198}, {"type": "node", "id": 1244661237, "lat": 53.541027, "lon": 8.5801978}, {"type": "node", "id": 1275629419, "lat": 53.5390882, "lon": 8.5814146}, {"type": "node", "id": 1275629422, "lat": 53.5390501, "lon": 8.5814605}, {"type": "node", "id": 1275629431, "lat": 53.5387212, "lon": 8.5807405}, {"type": "node", "id": 1275629438, "lat": 53.5393373, "lon": 8.5810222}, {"type": "node", "id": 1275629454, "lat": 53.5391534, "lon": 8.581551}, {"type": "node", "id": 1275629456, "lat": 53.5388377, "lon": 8.5811484}, {"type": "node", "id": 1275629457, "lat": 53.5388429, "lon": 8.580589}, {"type": "node", "id": 1338156327, "lat": 53.5458563, "lon": 8.5774071}, {"type": "node", "id": 1338156328, "lat": 53.5456307, "lon": 8.5766782}, {"type": "node", "id": 1346173780, "lat": 53.5388279, "lon": 8.5824348}, {"type": "node", "id": 1346173783, "lat": 53.5388879, "lon": 8.5823562}, {"type": "node", "id": 1346173784, "lat": 53.5386566, "lon": 8.5818565}, {"type": "node", "id": 1346173786, "lat": 53.5385966, "lon": 8.5819351}, {"type": "node", "id": 1346179000, "lat": 53.5446025, "lon": 8.5755712}, {"type": "node", "id": 1459862181, "lat": 53.5420216, "lon": 8.583152}, {"type": "node", "id": 1459862194, "lat": 53.5415752, "lon": 8.5835267}, {"type": "node", "id": 1459862199, "lat": 53.5419405, "lon": 8.5832246}, {"type": "node", "id": 1459862201, "lat": 53.5417318, "lon": 8.5836455}, {"type": "node", "id": 1459862203, "lat": 53.541945, "lon": 8.5829125}, {"type": "node", "id": 1459862215, "lat": 53.5418185, "lon": 8.5833685}, {"type": "node", "id": 1459862217, "lat": 53.5418334, "lon": 8.5833202}, {"type": "node", "id": 1459862222, "lat": 53.5416581, "lon": 8.5831888}, {"type": "node", "id": 1459862223, "lat": 53.5411954, "lon": 8.5845901}, {"type": "node", "id": 1459873379, "lat": 53.5393046, "lon": 8.5825131}, {"type": "node", "id": 1459873381, "lat": 53.5397934, "lon": 8.5825967}, {"type": "node", "id": 1459873383, "lat": 53.5393716, "lon": 8.5826769}, {"type": "node", "id": 1459885041, "lat": 53.5401082, "lon": 8.582768}, {"type": "node", "id": 1459885042, "lat": 53.5403093, "lon": 8.582395}, {"type": "node", "id": 1459885043, "lat": 53.5404946, "lon": 8.5829356}, {"type": "node", "id": 1459885044, "lat": 53.5401253, "lon": 8.5826064}, {"type": "node", "id": 1459885045, "lat": 53.5400724, "lon": 8.5826533}, {"type": "node", "id": 1459885046, "lat": 53.5401612, "lon": 8.5827211}, {"type": "node", "id": 1459890998, "lat": 53.5390425, "lon": 8.5816979}, {"type": "node", "id": 1459890999, "lat": 53.5389236, "lon": 8.5816824}, {"type": "node", "id": 1459891001, "lat": 53.5390291, "lon": 8.5820477}, {"type": "node", "id": 1459891002, "lat": 53.5388419, "lon": 8.581019}, {"type": "node", "id": 1459891004, "lat": 53.5389878, "lon": 8.5815536}, {"type": "node", "id": 1459891006, "lat": 53.5387768, "lon": 8.5818695}, {"type": "node", "id": 1459891009, "lat": 53.5389198, "lon": 8.582187}, {"type": "node", "id": 1459891018, "lat": 53.5390882, "lon": 8.5814256}, {"type": "node", "id": 1459891021, "lat": 53.5391494, "lon": 8.5815616}, {"type": "node", "id": 1464228463, "lat": 53.5412711, "lon": 8.5826237, "tags": {"addr:city": "Bremerhaven", "addr:country": "DE", "addr:housenumber": "9-11", "addr:postcode": "27568", "addr:street": "Theodor-Heuss-Platz", "amenity": "fast_food", "cuisine": "asian", "diet:vegetarian": "yes", "indoor_seating": "yes", "name": "Bao My", "opening_hours": "Mo-Su 11:00-22:00", "outdoor_seating": "no", "phone": "+49 471 80998149", "wheelchair": "no"}}, {"type": "node", "id": 1464324673, "lat": 53.5419143, "lon": 8.5806652}, {"type": "node", "id": 1464324674, "lat": 53.5420733, "lon": 8.5805893}, {"type": "node", "id": 1464324676, "lat": 53.5420546, "lon": 8.5805331}, {"type": "node", "id": 1464324677, "lat": 53.541933, "lon": 8.5807214}, {"type": "node", "id": 1465585633, "lat": 53.5421444, "lon": 8.5829215, "tags": {"addr:city": "Bremerhaven", "addr:country": "DE", "addr:housenumber": "12", "addr:postcode": "27568", "addr:street": "L\u00f6ningstra\u00dfe", "amenity": "veterinary", "name": "Kleintierpraxis Bremerhaven-Mitte", "opening_hours": "Mo,We,Fr 08:00-11:00, Tu,Th 16:30-19:00, Su 18:00-19:00 || \"Um Terminvereinbarung wird gebeten.Sonntags Notfallsprechstunde\"", "website": "https://www.kleintierpraxis-bhv-mitte.de/", "wheelchair": "no"}}, {"type": "node", "id": 1469026696, "lat": 53.5389193, "lon": 8.5859087}, {"type": "node", "id": 1469026700, "lat": 53.5393059, "lon": 8.5866276}, {"type": "node", "id": 1469026737, "lat": 53.5393267, "lon": 8.5864934}, {"type": "node", "id": 1469026750, "lat": 53.5388767, "lon": 8.5859611}, {"type": "node", "id": 1469026758, "lat": 53.539365, "lon": 8.5865104}, {"type": "node", "id": 1469026760, "lat": 53.5394428, "lon": 8.5865444}, {"type": "node", "id": 1572584409, "lat": 53.5422112, "lon": 8.5820014}, {"type": "node", "id": 1572584412, "lat": 53.5423439, "lon": 8.5823969}, {"type": "node", "id": 1572584414, "lat": 53.5423012, "lon": 8.5819159}, {"type": "node", "id": 1572584416, "lat": 53.5424339, "lon": 8.5823113}, {"type": "node", "id": 1572646419, "lat": 53.5408454, "lon": 8.5825605, "tags": {"addr:city": "Bremerhaven", "addr:country": "DE", "addr:housenumber": "3", "addr:postcode": "27568", "addr:street": "Theodor-Heuss-Platz", "amenity": "casino", "name": "Automatencasino Bremerhaven", "opening_hours": "Su-Th 11:00-24:00; Fr,Sa 11:00-01:00; PH off", "shop": "kitchen_equipment", "website": "http://www.spielbank-bremerhaven.de/", "wheelchair": "no"}}, {"type": "node", "id": 1584007618, "lat": 53.5409863, "lon": 8.5813498, "tags": {"addr:city": "Bremerhaven", "addr:country": "DE", "addr:housenumber": "8", "addr:postcode": "27568", "addr:street": "Theodor-Heuss-Platz", "amenity": "restaurant", "building": "yes", "changing_table": "no", "contact:phone": "+49 471 96907890", "indoor_seating": "yes", "name": "Marlene", "opening_hours": "Mo-Fr 11:30+", "outdoor_seating": "yes", "payment:cash": "yes", "phone": "+49 471 96907890", "smoking": "outside", "toilets:access": "customers", "toilets:wheelchair": "no", "website": "https://marlene-bhv.de/", "wheelchair": "no"}}, {"type": "node", "id": 1584007627, "lat": 53.5410802, "lon": 8.5811926, "tags": {"addr:city": "Bremerhaven", "addr:country": "DE", "addr:housenumber": "10", "addr:postcode": "27568", "addr:street": "Theodor-Heuss-Platz", "amenity": "restaurant", "cuisine": "burger", "diet:vegetarian": "yes", "indoor_seating": "yes", "name": "B Burger Bar", "opening_hours": "Mo-Su 12:00-24:00+", "outdoor_seating": "yes", "website": "https://www.b-burger-bar.de/"}}, {"type": "node", "id": 1586129905, "lat": 53.540504, "lon": 8.5844209, "tags": {"addr:city": "Bremerhaven", "addr:country": "DE", "addr:housenumber": "23", "addr:postcode": "27568", "addr:street": "F\u00e4hrstra\u00dfe", "air_conditioning": "no", "amenity": "fast_food", "cuisine": "burger;kebab;chicken", "diet:vegetarian": "yes", "drive_through": "no", "indoor_seating": "yes", "name": "Mirna's Pizza", "opening_hours": "Su-Th 11:00-23:00; Fr,Sa 11:00-24:00", "outdoor_seating": "no", "smoking": "no"}}, {"type": "node", "id": 1599957730, "lat": 53.5415943, "lon": 8.5841513}, {"type": "node", "id": 1599957732, "lat": 53.5415022, "lon": 8.5845334}, {"type": "node", "id": 1599957734, "lat": 53.5412496, "lon": 8.5839368}, {"type": "node", "id": 1599957735, "lat": 53.5411652, "lon": 8.584288}, {"type": "node", "id": 1599957739, "lat": 53.5413448, "lon": 8.5844259}, {"type": "node", "id": 1599957741, "lat": 53.5413236, "lon": 8.5839899}, {"type": "node", "id": 1599957743, "lat": 53.5412284, "lon": 8.584331}, {"type": "node", "id": 1599957747, "lat": 53.5414369, "lon": 8.5840439}, {"type": "node", "id": 1613466096, "lat": 53.5416387, "lon": 8.5795802}, {"type": "node", "id": 1613466097, "lat": 53.5418011, "lon": 8.5806218}, {"type": "node", "id": 1635632507, "lat": 53.5411066, "lon": 8.5856604}, {"type": "node", "id": 1635632508, "lat": 53.5415723, "lon": 8.5857947}, {"type": "node", "id": 1635632509, "lat": 53.5409889, "lon": 8.5855876}, {"type": "node", "id": 1635632510, "lat": 53.5411273, "lon": 8.5855658}, {"type": "node", "id": 1635632512, "lat": 53.5415699, "lon": 8.5862238}, {"type": "node", "id": 1635632515, "lat": 53.5414894, "lon": 8.586174}, {"type": "node", "id": 1635632520, "lat": 53.5415219, "lon": 8.5864235}, {"type": "node", "id": 1635632526, "lat": 53.5409098, "lon": 8.5859952}, {"type": "node", "id": 1680564105, "lat": 53.5397524, "lon": 8.5809591}, {"type": "node", "id": 1680804438, "lat": 53.5410135, "lon": 8.5829375, "tags": {"bench": "yes", "bus": "yes", "departures_board": "yes", "highway": "bus_stop", "name": "Hochschule BHV / Stadttheater", "network": "Verkehrsverbund Bremen/Niedersachsen", "network:short": "VBN", "network:wikidata": "Q1306245", "network:wikipedia": "de:Verkehrsverbund Bremen/Niedersachsen", "public_transport": "stop_position", "shelter": "yes", "stop_id": "46106", "wheelchair": "yes"}}, {"type": "node", "id": 1680804462, "lat": 53.5399972, "lon": 8.5825753}, {"type": "node", "id": 1717470946, "lat": 53.5401016, "lon": 8.5810838}, {"type": "node", "id": 1717470983, "lat": 53.5407295, "lon": 8.5804781}, {"type": "node", "id": 1717470994, "lat": 53.5408328, "lon": 8.5807885}, {"type": "node", "id": 1717517180, "lat": 53.5404818, "lon": 8.5845302}, {"type": "node", "id": 1791374129, "lat": 53.5407541, "lon": 8.581928, "tags": {"amenity": "bicycle_parking", "bicycle_parking": "stands", "capacity": "8", "check_date:capacity": "2021-02-04", "covered": "no"}}, {"type": "node", "id": 1791374130, "lat": 53.5409036, "lon": 8.5818941, "tags": {"amenity": "bicycle_parking", "bicycle_parking": "stands", "capacity": "4", "check_date:capacity": "2021-02-04", "covered": "no"}}, {"type": "node", "id": 1791374133, "lat": 53.5413643, "lon": 8.5809138, "tags": {"amenity": "bicycle_parking", "bicycle_parking": "stands", "capacity": "8", "covered": "no", "note:de": "Anzahl und exakten Ort pr\u00fcfen"}}, {"type": "node", "id": 1834233676, "lat": 53.5445568, "lon": 8.5785981}, {"type": "node", "id": 1834233677, "lat": 53.5447449, "lon": 8.5791506}, {"type": "node", "id": 1834233679, "lat": 53.5420423, "lon": 8.5821137}, {"type": "node", "id": 1834233682, "lat": 53.5447499, "lon": 8.5784304}, {"type": "node", "id": 1857042877, "lat": 53.5416374, "lon": 8.580782, "tags": {"entrance": "yes"}}, {"type": "node", "id": 1944897904, "lat": 53.5401515, "lon": 8.5810293}, {"type": "node", "id": 1944897914, "lat": 53.5402445, "lon": 8.5813018}, {"type": "node", "id": 1944897950, "lat": 53.5402937, "lon": 8.5812546}, {"type": "node", "id": 1944897962, "lat": 53.5403144, "lon": 8.5813149}, {"type": "node", "id": 1944897969, "lat": 53.5403481, "lon": 8.5812023}, {"type": "node", "id": 1944897981, "lat": 53.5403683, "lon": 8.5812626}, {"type": "node", "id": 1944897987, "lat": 53.5403814, "lon": 8.5807573}, {"type": "node", "id": 1944897996, "lat": 53.5403947, "lon": 8.5807963}, {"type": "node", "id": 1944898003, "lat": 53.5404258, "lon": 8.5807145}, {"type": "node", "id": 1944898008, "lat": 53.5404295, "lon": 8.5811239}, {"type": "node", "id": 1944898012, "lat": 53.5404299, "lon": 8.5807265}, {"type": "node", "id": 1944898016, "lat": 53.5404419, "lon": 8.580703}, {"type": "node", "id": 1944898047, "lat": 53.5404447, "lon": 8.5807115}, {"type": "node", "id": 1944898050, "lat": 53.5404497, "lon": 8.5806916}, {"type": "node", "id": 1944898056, "lat": 53.5404505, "lon": 8.5806944}, {"type": "node", "id": 1944898061, "lat": 53.5404525, "lon": 8.580689}, {"type": "node", "id": 1944898065, "lat": 53.5404533, "lon": 8.580692}, {"type": "node", "id": 1944898073, "lat": 53.540471, "lon": 8.5806712}, {"type": "node", "id": 1944898076, "lat": 53.540472, "lon": 8.5806741}, {"type": "node", "id": 1944898079, "lat": 53.5404738, "lon": 8.5806688}, {"type": "node", "id": 1944898082, "lat": 53.5404744, "lon": 8.5806717}, {"type": "node", "id": 1944898089, "lat": 53.5404922, "lon": 8.5806512}, {"type": "node", "id": 1944898092, "lat": 53.5404931, "lon": 8.5806538}, {"type": "node", "id": 1944898094, "lat": 53.5404948, "lon": 8.5806488}, {"type": "node", "id": 1944898096, "lat": 53.5404957, "lon": 8.5806513}, {"type": "node", "id": 1944898099, "lat": 53.5405012, "lon": 8.5814262}, {"type": "node", "id": 1944898107, "lat": 53.5405133, "lon": 8.580631}, {"type": "node", "id": 1944898131, "lat": 53.5405142, "lon": 8.5806336}, {"type": "node", "id": 1944898135, "lat": 53.540516, "lon": 8.5806285}, {"type": "node", "id": 1944898139, "lat": 53.5405168, "lon": 8.5806311}, {"type": "node", "id": 1944898151, "lat": 53.5405248, "lon": 8.5814019}, {"type": "node", "id": 1944898154, "lat": 53.5405344, "lon": 8.5806109}, {"type": "node", "id": 1944898159, "lat": 53.5405353, "lon": 8.5806136}, {"type": "node", "id": 1944898163, "lat": 53.5405371, "lon": 8.5806083}, {"type": "node", "id": 1944898168, "lat": 53.540538, "lon": 8.5806112}, {"type": "node", "id": 1944898175, "lat": 53.5405526, "lon": 8.5815782}, {"type": "node", "id": 1944898179, "lat": 53.5405556, "lon": 8.5805907}, {"type": "node", "id": 1944898181, "lat": 53.5405565, "lon": 8.5805933}, {"type": "node", "id": 1944898185, "lat": 53.5405582, "lon": 8.5805881}, {"type": "node", "id": 1944898187, "lat": 53.5405592, "lon": 8.5805908}, {"type": "node", "id": 1944898190, "lat": 53.540568, "lon": 8.5805823}, {"type": "node", "id": 1944898193, "lat": 53.5405803, "lon": 8.5806186}, {"type": "node", "id": 1944898221, "lat": 53.5405947, "lon": 8.581487}, {"type": "node", "id": 1944898228, "lat": 53.5406076, "lon": 8.5815248}, {"type": "node", "id": 1944898232, "lat": 53.5406261, "lon": 8.5814565}, {"type": "node", "id": 1944898234, "lat": 53.5406274, "lon": 8.5814603}, {"type": "node", "id": 1944898242, "lat": 53.5406819, "lon": 8.5814117}, {"type": "node", "id": 1944898245, "lat": 53.5406822, "lon": 8.5814081}, {"type": "node", "id": 1944898247, "lat": 53.5406831, "lon": 8.5814106}, {"type": "node", "id": 1944898250, "lat": 53.5406886, "lon": 8.581431}, {"type": "node", "id": 1944898254, "lat": 53.5407218, "lon": 8.5814523}, {"type": "node", "id": 1944898262, "lat": 53.5407572, "lon": 8.5814444}, {"type": "node", "id": 1944898271, "lat": 53.5407888, "lon": 8.5814142}, {"type": "node", "id": 1944898299, "lat": 53.5408001, "lon": 8.5808207}, {"type": "node", "id": 1944898304, "lat": 53.5408077, "lon": 8.5812876}, {"type": "node", "id": 1944898307, "lat": 53.5408089, "lon": 8.5812907}, {"type": "node", "id": 1944898311, "lat": 53.5408101, "lon": 8.58129}, {"type": "node", "id": 1944898314, "lat": 53.5408108, "lon": 8.5813678}, {"type": "node", "id": 1944898318, "lat": 53.5408164, "lon": 8.5813087}, {"type": "node", "id": 1944898334, "lat": 53.5408605, "lon": 8.581228}, {"type": "node", "id": 1944898337, "lat": 53.5408625, "lon": 8.5812353}, {"type": "node", "id": 1944898339, "lat": 53.5408814, "lon": 8.5810608}, {"type": "node", "id": 1944898341, "lat": 53.5408915, "lon": 8.5811979}, {"type": "node", "id": 1944898344, "lat": 53.5409413, "lon": 8.5810019}, {"type": "node", "id": 1944898347, "lat": 53.540976, "lon": 8.5814491}, {"type": "node", "id": 1944898348, "lat": 53.5409783, "lon": 8.5811543}, {"type": "node", "id": 1944898350, "lat": 53.5409911, "lon": 8.5811521}, {"type": "node", "id": 1944898351, "lat": 53.541005, "lon": 8.5812408}, {"type": "node", "id": 1944898385, "lat": 53.5410153, "lon": 8.5812254}, {"type": "node", "id": 1944898391, "lat": 53.5410606, "lon": 8.581366}, {"type": "node", "id": 1944961821, "lat": 53.5400109, "lon": 8.5847994}, {"type": "node", "id": 1944961824, "lat": 53.5400469, "lon": 8.5848359}, {"type": "node", "id": 1944961848, "lat": 53.5400916, "lon": 8.5847109}, {"type": "node", "id": 1944961861, "lat": 53.5400852, "lon": 8.5838698}, {"type": "node", "id": 1944961867, "lat": 53.5400811, "lon": 8.5851944}, {"type": "node", "id": 1944961894, "lat": 53.5401497, "lon": 8.5837199}, {"type": "node", "id": 1944961900, "lat": 53.540157, "lon": 8.5839517}, {"type": "node", "id": 1944961902, "lat": 53.5401678, "lon": 8.5839433}, {"type": "node", "id": 1944961906, "lat": 53.5402108, "lon": 8.5848316}, {"type": "node", "id": 1944961924, "lat": 53.5402215, "lon": 8.5838022}, {"type": "node", "id": 1944961926, "lat": 53.5402259, "lon": 8.5838076}, {"type": "node", "id": 1944961928, "lat": 53.5402264, "lon": 8.5838076}, {"type": "node", "id": 1944961932, "lat": 53.5402373, "lon": 8.5840428}, {"type": "node", "id": 1944961934, "lat": 53.5402374, "lon": 8.584022}, {"type": "node", "id": 1944961941, "lat": 53.5402954, "lon": 8.5838867}, {"type": "node", "id": 1944961945, "lat": 53.5403005, "lon": 8.5838919}, {"type": "node", "id": 1944961947, "lat": 53.5403098, "lon": 8.5841249}, {"type": "node", "id": 1944961948, "lat": 53.5403396, "lon": 8.5846885}, {"type": "node", "id": 1944961949, "lat": 53.5403316, "lon": 8.5841208}, {"type": "node", "id": 1944961961, "lat": 53.5403726, "lon": 8.5839735}, {"type": "node", "id": 1944961966, "lat": 53.5404212, "lon": 8.5841589}, {"type": "node", "id": 1944961968, "lat": 53.5403852, "lon": 8.5839863}, {"type": "node", "id": 1944961974, "lat": 53.5404039, "lon": 8.5842023}, {"type": "node", "id": 1944961976, "lat": 53.5404315, "lon": 8.5845199}, {"type": "node", "id": 1944961980, "lat": 53.5404408, "lon": 8.5848424}, {"type": "node", "id": 1944961985, "lat": 53.5404579, "lon": 8.584836}, {"type": "node", "id": 1944961993, "lat": 53.5404575, "lon": 8.5840678}, {"type": "node", "id": 1944961995, "lat": 53.5404707, "lon": 8.5845616}, {"type": "node", "id": 1983703917, "lat": 53.5395797, "lon": 8.5819349, "tags": {"addr:city": "Bremerhaven", "addr:country": "DE", "addr:housename": "Haus S", "addr:housenumber": "7", "addr:postcode": "27568", "addr:street": "Karlsburg", "amenity": "library", "email": "tb-bhv@suub.uni-bremen.de", "fax": "+49- 471-4823-252", "indoor": "yes", "level": "0", "name": "TB Bremerhaven", "official_name": "Teilbibliothek an der Hochschule Bremerhaven", "opening_hours": "Mo-Fr 09:00-18:00", "phone": "+49 471 4823249", "ref:isil": "unknown", "website": "https://www.hs-bremerhaven.de/Bibliothek.html", "wheelchair": "yes", "wikidata": "Q28745013"}}, {"type": "node", "id": 2003093459, "lat": 53.5495082, "lon": 8.5729523}, {"type": "node", "id": 2003093462, "lat": 53.5498528, "lon": 8.5731747}, {"type": "node", "id": 2003093463, "lat": 53.5499453, "lon": 8.5734183}, {"type": "node", "id": 2080102910, "lat": 53.5412929, "lon": 8.5840625}, {"type": "node", "id": 2080102911, "lat": 53.5413044, "lon": 8.5840703}, {"type": "node", "id": 2141707258, "lat": 53.540405, "lon": 8.5845685}, {"type": "node", "id": 2141707261, "lat": 53.5403508, "lon": 8.5843849}, {"type": "node", "id": 2340884989, "lat": 53.5421124, "lon": 8.5828708}, {"type": "node", "id": 2340884990, "lat": 53.5421839, "lon": 8.5830797}, {"type": "node", "id": 2340884991, "lat": 53.5422076, "lon": 8.5827785}, {"type": "node", "id": 2340884992, "lat": 53.5422662, "lon": 8.5833203}, {"type": "node", "id": 2340884993, "lat": 53.5422712, "lon": 8.5829951}, {"type": "node", "id": 2340884994, "lat": 53.5422791, "lon": 8.5829875}, {"type": "node", "id": 2340884995, "lat": 53.542322, "lon": 8.5826878}, {"type": "node", "id": 2340884996, "lat": 53.5423408, "lon": 8.5832479}, {"type": "node", "id": 2340884997, "lat": 53.5423473, "lon": 8.5835571}, {"type": "node", "id": 2340884998, "lat": 53.5423535, "lon": 8.5832356}, {"type": "node", "id": 2340884999, "lat": 53.5423723, "lon": 8.58334}, {"type": "node", "id": 2340885000, "lat": 53.5423728, "lon": 8.5828362}, {"type": "node", "id": 2340885002, "lat": 53.542409, "lon": 8.5826024}, {"type": "node", "id": 2340885003, "lat": 53.5424098, "lon": 8.5833038}, {"type": "node", "id": 2340885004, "lat": 53.5424542, "lon": 8.582735}, {"type": "node", "id": 2340885005, "lat": 53.5424596, "lon": 8.5834494}, {"type": "node", "id": 2340885006, "lat": 53.54246, "lon": 8.5827516}, {"type": "node", "id": 2387427026, "lat": 53.5403664, "lon": 8.5819538, "tags": {"amenity": "atm", "cash_in": "no", "check_date": "2021-11-10", "operator": "Weser-Elbe Sparkasse"}}, {"type": "node", "id": 2388422040, "lat": 53.5402465, "lon": 8.5814231}, {"type": "node", "id": 2388422043, "lat": 53.5403375, "lon": 8.5816929}, {"type": "node", "id": 2388422044, "lat": 53.5403681, "lon": 8.5820309, "tags": {"entrance": "yes"}}, {"type": "node", "id": 2388422045, "lat": 53.5403748, "lon": 8.5816838}, {"type": "node", "id": 2388422046, "lat": 53.5404095, "lon": 8.5819912}, {"type": "node", "id": 2388422047, "lat": 53.5404228, "lon": 8.5812546}, {"type": "node", "id": 2388422048, "lat": 53.5404352, "lon": 8.5812912}, {"type": "node", "id": 2388422049, "lat": 53.5404541, "lon": 8.5819175}, {"type": "node", "id": 2388422051, "lat": 53.5405036, "lon": 8.5814941}, {"type": "node", "id": 2388422052, "lat": 53.5405138, "lon": 8.5815244}, {"type": "node", "id": 2388422053, "lat": 53.5405291, "lon": 8.5815354}, {"type": "node", "id": 2388422054, "lat": 53.5406084, "lon": 8.5817691}, {"type": "node", "id": 2389015867, "lat": 53.5405686, "lon": 8.5816033}, {"type": "node", "id": 2389015871, "lat": 53.5405686, "lon": 8.5816092}, {"type": "node", "id": 2389015873, "lat": 53.5405688, "lon": 8.5816151}, {"type": "node", "id": 2389015875, "lat": 53.5405692, "lon": 8.5815973}, {"type": "node", "id": 2389015877, "lat": 53.5405708, "lon": 8.5816212}, {"type": "node", "id": 2389015879, "lat": 53.5405702, "lon": 8.5815911}, {"type": "node", "id": 2389015881, "lat": 53.5405706, "lon": 8.5816039}, {"type": "node", "id": 2389015883, "lat": 53.5405707, "lon": 8.5816099}, {"type": "node", "id": 2389015885, "lat": 53.5405709, "lon": 8.5816157}, {"type": "node", "id": 2389015887, "lat": 53.5405713, "lon": 8.5815979}, {"type": "node", "id": 2389015889, "lat": 53.5405716, "lon": 8.581585}, {"type": "node", "id": 2389015893, "lat": 53.5405722, "lon": 8.5815917}, {"type": "node", "id": 2389015895, "lat": 53.5405737, "lon": 8.5815801}, {"type": "node", "id": 2389015898, "lat": 53.5405737, "lon": 8.5815857}, {"type": "node", "id": 2389015900, "lat": 53.5405757, "lon": 8.5815808}, {"type": "node", "id": 2389015902, "lat": 53.5405768, "lon": 8.5815771}, {"type": "node", "id": 2389015917, "lat": 53.541563, "lon": 8.5812303}, {"type": "node", "id": 2389015920, "lat": 53.5416674, "lon": 8.5811303}, {"type": "node", "id": 2389015921, "lat": 53.5416735, "lon": 8.5811485}, {"type": "node", "id": 2389015923, "lat": 53.5417287, "lon": 8.5810957}, {"type": "node", "id": 2389015925, "lat": 53.5417346, "lon": 8.5813289}, {"type": "node", "id": 2389015927, "lat": 53.5417354, "lon": 8.5811155}, {"type": "node", "id": 2389015929, "lat": 53.5417845, "lon": 8.5818852}, {"type": "node", "id": 2389015935, "lat": 53.541872, "lon": 8.5809847}, {"type": "node", "id": 2389015939, "lat": 53.5418889, "lon": 8.5817852}, {"type": "node", "id": 2389015941, "lat": 53.5419263, "lon": 8.5811452}, {"type": "node", "id": 2389015950, "lat": 53.5420055, "lon": 8.5808574}, {"type": "node", "id": 2389015958, "lat": 53.5420596, "lon": 8.5810175}, {"type": "node", "id": 2389015960, "lat": 53.5420972, "lon": 8.5807694}, {"type": "node", "id": 2389015962, "lat": 53.5421231, "lon": 8.581205}, {"type": "node", "id": 2389015964, "lat": 53.5421429, "lon": 8.5812637}, {"type": "node", "id": 2389015965, "lat": 53.5421514, "lon": 8.5809295}, {"type": "node", "id": 2389015967, "lat": 53.5421543, "lon": 8.5809381}, {"type": "node", "id": 2389015969, "lat": 53.5421863, "lon": 8.5806841}, {"type": "node", "id": 2389015971, "lat": 53.542205, "lon": 8.5810879}, {"type": "node", "id": 2389015973, "lat": 53.5422097, "lon": 8.5812664}, {"type": "node", "id": 2389015975, "lat": 53.5422174, "lon": 8.581289}, {"type": "node", "id": 2389015977, "lat": 53.5422304, "lon": 8.5808142}, {"type": "node", "id": 2389015979, "lat": 53.5422347, "lon": 8.5811757}, {"type": "node", "id": 2389015981, "lat": 53.5422434, "lon": 8.5808527}, {"type": "node", "id": 2389015983, "lat": 53.5422653, "lon": 8.5814307}, {"type": "node", "id": 2389015985, "lat": 53.542294, "lon": 8.5810025}, {"type": "node", "id": 2389015986, "lat": 53.5423013, "lon": 8.5812087}, {"type": "node", "id": 2389015988, "lat": 53.5423191, "lon": 8.5807293}, {"type": "node", "id": 2389015990, "lat": 53.5423193, "lon": 8.5810773}, {"type": "node", "id": 2389015992, "lat": 53.5423492, "lon": 8.5813503}, {"type": "node", "id": 2389015994, "lat": 53.5423566, "lon": 8.5806933}, {"type": "node", "id": 2389015999, "lat": 53.5423715, "lon": 8.5807374}, {"type": "node", "id": 2389016000, "lat": 53.5423797, "lon": 8.5809086}, {"type": "node", "id": 2389016002, "lat": 53.5423841, "lon": 8.5804946}, {"type": "node", "id": 2389016004, "lat": 53.5424081, "lon": 8.5809923}, {"type": "node", "id": 2389016008, "lat": 53.5424256, "lon": 8.5806173}, {"type": "node", "id": 2389016010, "lat": 53.542443, "lon": 8.5806689}, {"type": "node", "id": 2389016014, "lat": 53.5424522, "lon": 8.58095}, {"type": "node", "id": 2389016025, "lat": 53.542481, "lon": 8.5810354}, {"type": "node", "id": 2389016033, "lat": 53.5425292, "lon": 8.5811778}, {"type": "node", "id": 2389134645, "lat": 53.5405457, "lon": 8.5815843}, {"type": "node", "id": 2389134648, "lat": 53.5414697, "lon": 8.5809462}, {"type": "node", "id": 2542120289, "lat": 53.540023, "lon": 8.5811595, "tags": {"access": "yes", "amenity": "parking_entrance", "fee": "yes", "maxheight": "1.90", "name": "Theatergarage", "operator": "ST\u00c4PARK", "parking": "underground"}}, {"type": "node", "id": 2548885053, "lat": 53.1037037, "lon": 8.8496757, "tags": {"amenity": "library", "contact:email": "suubb15@suub.uni-bremen.de", "contact:website": "http://www.suub.uni-bremen.de/", "internet_access": "wlan", "name": "BB Physik/Elektrotechnik", "official_name": "Bereichsbibliothek 15 f\u00fcr Physik, Elektrotechnik", "opening_hours": "Mo-Fr 09:30-18:00", "roof:colour": "grey"}}, {"type": "node", "id": 2557299358, "lat": 53.5385948, "lon": 8.5813197}, {"type": "node", "id": 2557299361, "lat": 53.5386752, "lon": 8.5812192}, {"type": "node", "id": 2557299363, "lat": 53.5387858, "lon": 8.5817545}, {"type": "node", "id": 2557299365, "lat": 53.5388673, "lon": 8.5816573}, {"type": "node", "id": 2557299367, "lat": 53.5389638, "lon": 8.5818136}, {"type": "node", "id": 2557299369, "lat": 53.5389807, "lon": 8.5818511}, {"type": "node", "id": 2577451416, "lat": 53.5400146, "lon": 8.5811675}, {"type": "node", "id": 2614868813, "lat": 53.5397519, "lon": 8.582987}, {"type": "node", "id": 2614868815, "lat": 53.5398451, "lon": 8.5832602}, {"type": "node", "id": 2614868817, "lat": 53.5398701, "lon": 8.5828728}, {"type": "node", "id": 2614868818, "lat": 53.5398773, "lon": 8.5832291}, {"type": "node", "id": 2614868819, "lat": 53.5398797, "lon": 8.583338}, {"type": "node", "id": 2614868820, "lat": 53.5398808, "lon": 8.5833577}, {"type": "node", "id": 2614868821, "lat": 53.539882, "lon": 8.583318}, {"type": "node", "id": 2614868822, "lat": 53.539888, "lon": 8.5833837}, {"type": "node", "id": 2614868823, "lat": 53.539889, "lon": 8.5832964}, {"type": "node", "id": 2614868824, "lat": 53.5398956, "lon": 8.5832854}, {"type": "node", "id": 2614868825, "lat": 53.5398979, "lon": 8.5833998}, {"type": "node", "id": 2614868826, "lat": 53.5399043, "lon": 8.5828398}, {"type": "node", "id": 2614868827, "lat": 53.539908, "lon": 8.5829838}, {"type": "node", "id": 2614868829, "lat": 53.5399088, "lon": 8.5834089}, {"type": "node", "id": 2614868831, "lat": 53.5399253, "lon": 8.5834123}, {"type": "node", "id": 2614868833, "lat": 53.5399401, "lon": 8.5834058}, {"type": "node", "id": 2614868834, "lat": 53.5399421, "lon": 8.5829508}, {"type": "node", "id": 2614868837, "lat": 53.5399547, "lon": 8.5833869}, {"type": "node", "id": 2614868843, "lat": 53.5399622, "lon": 8.5833643}, {"type": "node", "id": 2614868844, "lat": 53.5399631, "lon": 8.5833505}, {"type": "node", "id": 2614868866, "lat": 53.5400342, "lon": 8.5832817, "tags": {"entrance": "yes"}}, {"type": "node", "id": 2614868869, "lat": 53.5400389, "lon": 8.5827097}, {"type": "node", "id": 2614868872, "lat": 53.5400498, "lon": 8.5832666}, {"type": "node", "id": 2614868894, "lat": 53.5401351, "lon": 8.5829917}, {"type": "node", "id": 2614868901, "lat": 53.5401518, "lon": 8.5829151}, {"type": "node", "id": 2614868905, "lat": 53.5401673, "lon": 8.5829606}, {"type": "node", "id": 2614868914, "lat": 53.5402167, "lon": 8.5831054}, {"type": "node", "id": 2614868915, "lat": 53.5402228, "lon": 8.5828465}, {"type": "node", "id": 2614868916, "lat": 53.5402255, "lon": 8.5831312}, {"type": "node", "id": 2614868918, "lat": 53.5402965, "lon": 8.5830626}, {"type": "node", "id": 2614868920, "lat": 53.5404609, "lon": 8.5840587}, {"type": "node", "id": 2614868922, "lat": 53.5409014, "lon": 8.5838739}, {"type": "node", "id": 2614868923, "lat": 53.5409407, "lon": 8.5837171}, {"type": "node", "id": 2614884238, "lat": 53.5401832, "lon": 8.5835372}, {"type": "node", "id": 2614884242, "lat": 53.5402179, "lon": 8.5834036}, {"type": "node", "id": 2614884243, "lat": 53.5402276, "lon": 8.5835698}, {"type": "node", "id": 2614884244, "lat": 53.5402575, "lon": 8.5834327}, {"type": "node", "id": 2614884245, "lat": 53.5402609, "lon": 8.5835942}, {"type": "node", "id": 2614884246, "lat": 53.540295, "lon": 8.5834611}, {"type": "node", "id": 2614884247, "lat": 53.5403818, "lon": 8.5831034}, {"type": "node", "id": 2614884250, "lat": 53.5406064, "lon": 8.5840338}, {"type": "node", "id": 2614884251, "lat": 53.5406294, "lon": 8.5839478}, {"type": "node", "id": 2614884253, "lat": 53.5406501, "lon": 8.5839609}, {"type": "node", "id": 2614884254, "lat": 53.5406907, "lon": 8.5837116}, {"type": "node", "id": 2614884255, "lat": 53.5407129, "lon": 8.5837302}, {"type": "node", "id": 2614884256, "lat": 53.5407741, "lon": 8.5833926}, {"type": "node", "id": 2614943218, "lat": 53.5393941, "lon": 8.5832096}, {"type": "node", "id": 2614943219, "lat": 53.5397096, "lon": 8.583716}, {"type": "node", "id": 2614943221, "lat": 53.5397174, "lon": 8.5828872}, {"type": "node", "id": 2614943223, "lat": 53.539743, "lon": 8.5835716}, {"type": "node", "id": 2614943224, "lat": 53.5397456, "lon": 8.5836501}, {"type": "node", "id": 2614943226, "lat": 53.5397499, "lon": 8.5836422}, {"type": "node", "id": 2614943228, "lat": 53.5397906, "lon": 8.5835587}, {"type": "node", "id": 2614943229, "lat": 53.5397938, "lon": 8.5835922}, {"type": "node", "id": 2614943231, "lat": 53.539824, "lon": 8.5835826}, {"type": "node", "id": 2614943233, "lat": 53.5398573, "lon": 8.5835215}, {"type": "node", "id": 2614943234, "lat": 53.539908, "lon": 8.5835997}, {"type": "node", "id": 2614943236, "lat": 53.539912, "lon": 8.5840284}, {"type": "node", "id": 2614943238, "lat": 53.5399246, "lon": 8.5829677, "tags": {"entrance": "yes"}}, {"type": "node", "id": 2614943240, "lat": 53.5399566, "lon": 8.5840972}, {"type": "node", "id": 2614943241, "lat": 53.5399575, "lon": 8.5838778}, {"type": "node", "id": 2614943243, "lat": 53.539965, "lon": 8.583495}, {"type": "node", "id": 2614943244, "lat": 53.5399774, "lon": 8.5839085}, {"type": "node", "id": 2614943246, "lat": 53.5399994, "lon": 8.5841633}, {"type": "node", "id": 2614943248, "lat": 53.5400099, "lon": 8.5837816}, {"type": "node", "id": 2614943249, "lat": 53.5400219, "lon": 8.5839772}, {"type": "node", "id": 2614943251, "lat": 53.5400233, "lon": 8.5838022}, {"type": "node", "id": 2614943253, "lat": 53.5400284, "lon": 8.5836207}, {"type": "node", "id": 2614943254, "lat": 53.5400325, "lon": 8.5842145}, {"type": "node", "id": 2614943256, "lat": 53.5400366, "lon": 8.5836055}, {"type": "node", "id": 2614943257, "lat": 53.5400648, "lon": 8.5840434}, {"type": "node", "id": 2614943259, "lat": 53.5400701, "lon": 8.5842724}, {"type": "node", "id": 2614943261, "lat": 53.5400793, "lon": 8.5836993}, {"type": "node", "id": 2614943262, "lat": 53.5400979, "lon": 8.5840946}, {"type": "node", "id": 2614943264, "lat": 53.5401006, "lon": 8.5836551}, {"type": "node", "id": 2614943266, "lat": 53.5401033, "lon": 8.5843238}, {"type": "node", "id": 2614943270, "lat": 53.5401355, "lon": 8.5841525}, {"type": "node", "id": 2614943271, "lat": 53.5401361, "lon": 8.5843744}, {"type": "node", "id": 2614943275, "lat": 53.5401687, "lon": 8.5842039}, {"type": "node", "id": 2614943277, "lat": 53.5401771, "lon": 8.5844377}, {"type": "node", "id": 2614943279, "lat": 53.5402015, "lon": 8.5842544}, {"type": "node", "id": 2614943280, "lat": 53.5402158, "lon": 8.5844974}, {"type": "node", "id": 2614943282, "lat": 53.5402425, "lon": 8.5843177}, {"type": "node", "id": 2614943284, "lat": 53.540256, "lon": 8.5845594}, {"type": "node", "id": 2614943285, "lat": 53.5402812, "lon": 8.5843774}, {"type": "node", "id": 2614943289, "lat": 53.5403214, "lon": 8.5844394}, {"type": "node", "id": 2616056329, "lat": 53.5403673, "lon": 8.5847307, "tags": {"addr:city": "Bremerhaven", "addr:country": "DE", "addr:housenumber": "38", "addr:postcode": "27568", "addr:street": "Deichstra\u00dfe", "entrance": "yes"}}, {"type": "node", "id": 2616071025, "lat": 53.5411298, "lon": 8.5829994}, {"type": "node", "id": 2616071026, "lat": 53.5411912, "lon": 8.5827636}, {"type": "node", "id": 2616071027, "lat": 53.5412206, "lon": 8.5830664}, {"type": "node", "id": 2616071028, "lat": 53.5412247, "lon": 8.582635}, {"type": "node", "id": 2616071029, "lat": 53.5412298, "lon": 8.5826388}, {"type": "node", "id": 2616071030, "lat": 53.5412334, "lon": 8.5826275}, {"type": "node", "id": 2616071032, "lat": 53.5412398, "lon": 8.5826143}, {"type": "node", "id": 2616071034, "lat": 53.5412563, "lon": 8.5829294}, {"type": "node", "id": 2616071035, "lat": 53.5412564, "lon": 8.5825906}, {"type": "node", "id": 2616071036, "lat": 53.5412705, "lon": 8.5829399}, {"type": "node", "id": 2616071038, "lat": 53.5412945, "lon": 8.5827739}, {"type": "node", "id": 2616071039, "lat": 53.5412962, "lon": 8.582841}, {"type": "node", "id": 2616071040, "lat": 53.5413106, "lon": 8.5827858}, {"type": "node", "id": 2616071041, "lat": 53.5413135, "lon": 8.5827007}, {"type": "node", "id": 2616071042, "lat": 53.5413291, "lon": 8.5825154}, {"type": "node", "id": 2616071043, "lat": 53.5413719, "lon": 8.582645}, {"type": "node", "id": 2616071044, "lat": 53.5414217, "lon": 8.5824287}, {"type": "node", "id": 2616071045, "lat": 53.5414845, "lon": 8.5826191}, {"type": "node", "id": 2616071047, "lat": 53.5415112, "lon": 8.582345}, {"type": "node", "id": 2616071048, "lat": 53.5415589, "lon": 8.5824894}, {"type": "node", "id": 2616071049, "lat": 53.541574, "lon": 8.5825354}, {"type": "node", "id": 2616071050, "lat": 53.5416126, "lon": 8.5822502}, {"type": "node", "id": 2616071051, "lat": 53.5416603, "lon": 8.5823946}, {"type": "node", "id": 2616071053, "lat": 53.5416643, "lon": 8.5824068}, {"type": "node", "id": 2616071054, "lat": 53.5416874, "lon": 8.5821802}, {"type": "node", "id": 2616071055, "lat": 53.5417125, "lon": 8.5825527}, {"type": "node", "id": 2616071056, "lat": 53.5417376, "lon": 8.5827277}, {"type": "node", "id": 2616071057, "lat": 53.5417391, "lon": 8.5823368}, {"type": "node", "id": 2616071058, "lat": 53.5417626, "lon": 8.5827043}, {"type": "node", "id": 2616071059, "lat": 53.5417873, "lon": 8.5824827}, {"type": "node", "id": 2616071061, "lat": 53.5418104, "lon": 8.5829484}, {"type": "node", "id": 2616071063, "lat": 53.5418374, "lon": 8.5826343}, {"type": "node", "id": 2616071065, "lat": 53.5419103, "lon": 8.582855}, {"type": "node", "id": 2616072942, "lat": 53.5410319, "lon": 8.5813179, "tags": {"amenity": "clock", "check_date": "2021-11-10", "display": "analog", "visibility": "street"}}, {"type": "node", "id": 2616320348, "lat": 53.5399128, "lon": 8.5806558}, {"type": "node", "id": 2616320350, "lat": 53.5399131, "lon": 8.5806331}, {"type": "node", "id": 2616320352, "lat": 53.539914, "lon": 8.5806876}, {"type": "node", "id": 2616320354, "lat": 53.5399143, "lon": 8.5806135}, {"type": "node", "id": 2616320356, "lat": 53.539917, "lon": 8.5807123}, {"type": "node", "id": 2616320358, "lat": 53.5399185, "lon": 8.5805812}, {"type": "node", "id": 2616320360, "lat": 53.5399239, "lon": 8.5805545}, {"type": "node", "id": 2616320362, "lat": 53.5399239, "lon": 8.5807319}, {"type": "node", "id": 2616320364, "lat": 53.5399311, "lon": 8.5805232}, {"type": "node", "id": 2616320366, "lat": 53.5399323, "lon": 8.5807481}, {"type": "node", "id": 2616320368, "lat": 53.5399409, "lon": 8.5804947}, {"type": "node", "id": 2616320370, "lat": 53.5399446, "lon": 8.5807647}, {"type": "node", "id": 2616320372, "lat": 53.5399575, "lon": 8.5807788}, {"type": "node", "id": 2616320374, "lat": 53.5399698, "lon": 8.5807884}, {"type": "node", "id": 2616320376, "lat": 53.5399722, "lon": 8.5804113}, {"type": "node", "id": 2616320379, "lat": 53.5399886, "lon": 8.5807965}, {"type": "node", "id": 2616320381, "lat": 53.5400108, "lon": 8.5808035}, {"type": "node", "id": 2616320383, "lat": 53.5400255, "lon": 8.580806}, {"type": "node", "id": 2616320385, "lat": 53.5400308, "lon": 8.5804002}, {"type": "node", "id": 2616320387, "lat": 53.5400317, "lon": 8.5803421}, {"type": "node", "id": 2616320391, "lat": 53.5400393, "lon": 8.5802881}, {"type": "node", "id": 2616320393, "lat": 53.5400432, "lon": 8.5808086}, {"type": "node", "id": 2616320397, "lat": 53.5400526, "lon": 8.5802395}, {"type": "node", "id": 2616320399, "lat": 53.5400614, "lon": 8.5808091}, {"type": "node", "id": 2616320405, "lat": 53.5400698, "lon": 8.5801987}, {"type": "node", "id": 2616320412, "lat": 53.5400773, "lon": 8.5808081}, {"type": "node", "id": 2616320418, "lat": 53.5400914, "lon": 8.580805}, {"type": "node", "id": 2616320420, "lat": 53.540093, "lon": 8.5801614}, {"type": "node", "id": 2616320428, "lat": 53.5401058, "lon": 8.5807995}, {"type": "node", "id": 2616320436, "lat": 53.5401205, "lon": 8.5807939}, {"type": "node", "id": 2616320438, "lat": 53.5401212, "lon": 8.5801247}, {"type": "node", "id": 2616320444, "lat": 53.5401342, "lon": 8.5807859}, {"type": "node", "id": 2616320448, "lat": 53.540148, "lon": 8.5807753}, {"type": "node", "id": 2616320454, "lat": 53.5401624, "lon": 8.5807627}, {"type": "node", "id": 2616320460, "lat": 53.5401771, "lon": 8.5807511}, {"type": "node", "id": 2616320462, "lat": 53.5401936, "lon": 8.5807355}, {"type": "node", "id": 2616320464, "lat": 53.5401976, "lon": 8.5799956}, {"type": "node", "id": 2616320470, "lat": 53.5402119, "lon": 8.5800383}, {"type": "node", "id": 2616320471, "lat": 53.5402217, "lon": 8.5807072}, {"type": "node", "id": 2616320478, "lat": 53.5402514, "lon": 8.5806785}, {"type": "node", "id": 2616320483, "lat": 53.5402789, "lon": 8.5798665}, {"type": "node", "id": 2616320485, "lat": 53.5402823, "lon": 8.5798316}, {"type": "node", "id": 2616320487, "lat": 53.5402828, "lon": 8.5806503}, {"type": "node", "id": 2616320491, "lat": 53.5402915, "lon": 8.5799029}, {"type": "node", "id": 2616320493, "lat": 53.5402945, "lon": 8.580641}, {"type": "node", "id": 2616320499, "lat": 53.5404452, "lon": 8.5796764}, {"type": "node", "id": 2616320504, "lat": 53.5406544, "lon": 8.5802981}, {"type": "node", "id": 2616329384, "lat": 53.5392285, "lon": 8.5827354}, {"type": "node", "id": 2616329386, "lat": 53.5393411, "lon": 8.583054}, {"type": "node", "id": 2616329387, "lat": 53.5394881, "lon": 8.5822868}, {"type": "node", "id": 2616329389, "lat": 53.5394357, "lon": 8.5821301}, {"type": "node", "id": 2616329390, "lat": 53.539601, "lon": 8.5821787}, {"type": "node", "id": 2616329391, "lat": 53.5394606, "lon": 8.5820576}, {"type": "node", "id": 2616329392, "lat": 53.5394688, "lon": 8.5825825, "tags": {"entrance": "yes"}}, {"type": "node", "id": 2616329393, "lat": 53.5394825, "lon": 8.5825691}, {"type": "node", "id": 2616329395, "lat": 53.5394956, "lon": 8.5826073}, {"type": "node", "id": 2616329396, "lat": 53.539509, "lon": 8.5825942, "tags": {"entrance": "yes"}}, {"type": "node", "id": 2616329397, "lat": 53.53958, "lon": 8.5817086}, {"type": "node", "id": 2616329399, "lat": 53.5396093, "lon": 8.5822033, "tags": {"entrance": "yes"}}, {"type": "node", "id": 2616329400, "lat": 53.539618, "lon": 8.5822289}, {"type": "node", "id": 2616329404, "lat": 53.5397242, "lon": 8.5821272}, {"type": "node", "id": 2616329407, "lat": 53.5398603, "lon": 8.5825291}, {"type": "node", "id": 2616329408, "lat": 53.5398476, "lon": 8.5824919}, {"type": "node", "id": 2616329411, "lat": 53.5398985, "lon": 8.5824905}, {"type": "node", "id": 2616329412, "lat": 53.539943, "lon": 8.5824455}, {"type": "node", "id": 2616402107, "lat": 53.5399935, "lon": 8.5814821}, {"type": "node", "id": 2616402109, "lat": 53.540177, "lon": 8.5813057}, {"type": "node", "id": 2616402111, "lat": 53.5402261, "lon": 8.5821673}, {"type": "node", "id": 2616402171, "lat": 53.5405306, "lon": 8.5821939}, {"type": "node", "id": 2616402175, "lat": 53.5407348, "lon": 8.5828085}, {"type": "node", "id": 2616402177, "lat": 53.5407513, "lon": 8.5828595}, {"type": "node", "id": 2618925660, "lat": 53.5398613, "lon": 8.5835905, "tags": {"addr:city": "Bremerhaven", "addr:country": "DE", "addr:housenumber": "8", "addr:postcode": "27568", "addr:street": "An der Karlstadt", "amenity": "fast_food", "delivery": "no", "diet:vegan": "yes", "diet:vegetarian": "yes", "indoor": "yes", "level": "0", "name": "Mensa Bremerhaven", "opening_hours": "Mo-Fr 11:15-14:00", "operator": "Studierendenwerk Bremen", "outdoor_seating": "yes", "takeaway": "yes", "website": "https://www.stw-bremen.de/de/mensa/bremerhaven"}}, {"type": "node", "id": 2618925661, "lat": 53.5398068, "lon": 8.5831478, "tags": {"entrance": "yes"}}, {"type": "node", "id": 2618925662, "lat": 53.5398474, "lon": 8.5832201, "tags": {"amenity": "cafe", "delivery": "no", "diet:vegetarian": "yes", "indoor": "yes", "indoor_seating": "yes", "level": "0", "name": "StuCa", "opening_hours": "Mo-Fr 09:00-17:00", "operator": "AStA der Hochschule Bremerhaven", "outdoor_seating": "no", "wheelchair": "yes"}}, {"type": "node", "id": 2622219618, "lat": 53.5420743, "lon": 8.5816138, "tags": {"addr:city": "Bremerhaven", "addr:country": "DE", "addr:housenumber": "4a", "addr:postcode": "27568", "addr:street": "Schleswiger Stra\u00dfe", "entrance": "yes"}}, {"type": "node", "id": 2622219624, "lat": 53.542217, "lon": 8.581477, "tags": {"addr:city": "Bremerhaven", "addr:country": "DE", "addr:housenumber": "6-8", "addr:postcode": "27568", "addr:street": "Schleswiger Stra\u00dfe", "entrance": "yes"}}, {"type": "node", "id": 2622219634, "lat": 53.5422721, "lon": 8.5811225}, {"type": "node", "id": 2622219636, "lat": 53.5424503, "lon": 8.5812535, "tags": {"barrier": "gate"}}, {"type": "node", "id": 2666910637, "lat": 53.5406815, "lon": 8.5848525}, {"type": "node", "id": 2666910638, "lat": 53.540784, "lon": 8.584487, "tags": {"addr:city": "Bremerhaven", "addr:housenumber": "20", "addr:postcode": "27568", "addr:street": "F\u00e4hrstra\u00dfe", "door": "automatic", "entrance": "main", "level": "0", "wheelchair": "yes"}}, {"type": "node", "id": 2666910639, "lat": 53.540863, "lon": 8.5846854}, {"type": "node", "id": 2666910642, "lat": 53.5410443, "lon": 8.5851212}, {"type": "node", "id": 2666910643, "lat": 53.5411106, "lon": 8.5848624}, {"type": "node", "id": 2666910644, "lat": 53.5414329, "lon": 8.5832664}, {"type": "node", "id": 2666910645, "lat": 53.5413916, "lon": 8.5854337}, {"type": "node", "id": 2666910647, "lat": 53.5414174, "lon": 8.5853073}, {"type": "node", "id": 2666910648, "lat": 53.5414575, "lon": 8.5853304}, {"type": "node", "id": 2666910649, "lat": 53.5414767, "lon": 8.583449}, {"type": "node", "id": 2666910650, "lat": 53.5414945, "lon": 8.5849292}, {"type": "node", "id": 2666910651, "lat": 53.5414025, "lon": 8.5834064}, {"type": "node", "id": 2666910652, "lat": 53.5415257, "lon": 8.5855111}, {"type": "node", "id": 2666910653, "lat": 53.5415346, "lon": 8.5849523}, {"type": "node", "id": 2666910654, "lat": 53.5415466, "lon": 8.5853819}, {"type": "node", "id": 2666910655, "lat": 53.5415558, "lon": 8.5835016}, {"type": "node", "id": 2666910656, "lat": 53.5415538, "lon": 8.5855239}, {"type": "node", "id": 2666910657, "lat": 53.5415548, "lon": 8.5855176}, {"type": "node", "id": 2666910658, "lat": 53.5415595, "lon": 8.5853016}, {"type": "node", "id": 2666910659, "lat": 53.5415732, "lon": 8.5853079}, {"type": "node", "id": 2666910660, "lat": 53.5415875, "lon": 8.5830126}, {"type": "node", "id": 2666910661, "lat": 53.5416201, "lon": 8.5850174}, {"type": "node", "id": 2666910662, "lat": 53.5416308, "lon": 8.5855613}, {"type": "node", "id": 2666910663, "lat": 53.5416322, "lon": 8.585553}, {"type": "node", "id": 2666910664, "lat": 53.541655, "lon": 8.5830966}, {"type": "node", "id": 2666910665, "lat": 53.5416559, "lon": 8.5855728}, {"type": "node", "id": 2666910666, "lat": 53.5416575, "lon": 8.5855628}, {"type": "node", "id": 2666910667, "lat": 53.5416595, "lon": 8.5850614}, {"type": "node", "id": 2666910668, "lat": 53.5416634, "lon": 8.5850372}, {"type": "node", "id": 2666910669, "lat": 53.5416896, "lon": 8.5829153}, {"type": "node", "id": 2666910670, "lat": 53.5417265, "lon": 8.5830269}, {"type": "node", "id": 2666910672, "lat": 53.5417558, "lon": 8.5851846}, {"type": "node", "id": 2666910673, "lat": 53.5417649, "lon": 8.5856199}, {"type": "node", "id": 2666910674, "lat": 53.5417661, "lon": 8.5856124}, {"type": "node", "id": 2666910675, "lat": 53.5417677, "lon": 8.5851108}, {"type": "node", "id": 2666910676, "lat": 53.5417747, "lon": 8.5854}, {"type": "node", "id": 2666910677, "lat": 53.5417805, "lon": 8.5853644}, {"type": "node", "id": 2666910678, "lat": 53.541805, "lon": 8.5853756}, {"type": "node", "id": 2666910679, "lat": 53.5418198, "lon": 8.5840584}, {"type": "node", "id": 2666910680, "lat": 53.5418216, "lon": 8.5856458}, {"type": "node", "id": 2666910681, "lat": 53.5418303, "lon": 8.5852187}, {"type": "node", "id": 2666910682, "lat": 53.5418339, "lon": 8.5853888}, {"type": "node", "id": 2666910683, "lat": 53.5418382, "lon": 8.5839836}, {"type": "node", "id": 2666910684, "lat": 53.5418377, "lon": 8.5853651}, {"type": "node", "id": 2666910685, "lat": 53.5418384, "lon": 8.5855418}, {"type": "node", "id": 2666910686, "lat": 53.5418507, "lon": 8.5854923}, {"type": "node", "id": 2666910687, "lat": 53.5418531, "lon": 8.5855485}, {"type": "node", "id": 2666910688, "lat": 53.5418614, "lon": 8.5854972}, {"type": "node", "id": 2666910689, "lat": 53.5418611, "lon": 8.5834997}, {"type": "node", "id": 2666910690, "lat": 53.5418689, "lon": 8.5853794}, {"type": "node", "id": 2666910691, "lat": 53.5418773, "lon": 8.5840109}, {"type": "node", "id": 2666910692, "lat": 53.5418894, "lon": 8.583962}, {"type": "node", "id": 2666910693, "lat": 53.5419108, "lon": 8.5857015}, {"type": "node", "id": 2666910694, "lat": 53.5419146, "lon": 8.5855632}, {"type": "node", "id": 2666910695, "lat": 53.5419159, "lon": 8.5839804}, {"type": "node", "id": 2666910696, "lat": 53.541916, "lon": 8.5854479}, {"type": "node", "id": 2666910697, "lat": 53.5419161, "lon": 8.5856635}, {"type": "node", "id": 2666910698, "lat": 53.541923, "lon": 8.5853774}, {"type": "node", "id": 2666910699, "lat": 53.5419264, "lon": 8.5854783}, {"type": "node", "id": 2666910700, "lat": 53.5419286, "lon": 8.5853055}, {"type": "node", "id": 2666910701, "lat": 53.5419296, "lon": 8.5856689}, {"type": "node", "id": 2666910702, "lat": 53.5419354, "lon": 8.5833781}, {"type": "node", "id": 2666910703, "lat": 53.5419357, "lon": 8.585625}, {"type": "node", "id": 2666910704, "lat": 53.5419394, "lon": 8.5854252}, {"type": "node", "id": 2666910705, "lat": 53.5419422, "lon": 8.5852092}, {"type": "node", "id": 2666910706, "lat": 53.5419432, "lon": 8.583557}, {"type": "node", "id": 2666910707, "lat": 53.5419453, "lon": 8.5855334}, {"type": "node", "id": 2666910708, "lat": 53.5419457, "lon": 8.5853555}, {"type": "node", "id": 2666910709, "lat": 53.5419602, "lon": 8.5854455}, {"type": "node", "id": 2666910710, "lat": 53.5419635, "lon": 8.5852716}, {"type": "node", "id": 2666910711, "lat": 53.5419818, "lon": 8.5837602}, {"type": "node", "id": 2666910712, "lat": 53.5419683, "lon": 8.585184}, {"type": "node", "id": 2666910713, "lat": 53.5419697, "lon": 8.5854731}, {"type": "node", "id": 2666910714, "lat": 53.5419699, "lon": 8.5851887}, {"type": "node", "id": 2666910715, "lat": 53.5419836, "lon": 8.5835191}, {"type": "node", "id": 2666910717, "lat": 53.5420037, "lon": 8.58544}, {"type": "node", "id": 2666910718, "lat": 53.5420074, "lon": 8.5853998}, {"type": "node", "id": 2666910719, "lat": 53.5420195, "lon": 8.5834844}, {"type": "node", "id": 2666910721, "lat": 53.5420246, "lon": 8.5857466}, {"type": "node", "id": 2666910722, "lat": 53.5420264, "lon": 8.5855061}, {"type": "node", "id": 2666910723, "lat": 53.5420317, "lon": 8.5835727}, {"type": "node", "id": 2666910724, "lat": 53.5420378, "lon": 8.5855713}, {"type": "node", "id": 2666910725, "lat": 53.5420408, "lon": 8.5854921}, {"type": "node", "id": 2666910726, "lat": 53.5420416, "lon": 8.5851129}, {"type": "node", "id": 2666910727, "lat": 53.5420432, "lon": 8.5851177}, {"type": "node", "id": 2666910728, "lat": 53.5420452, "lon": 8.5835596}, {"type": "node", "id": 2666910729, "lat": 53.5420458, "lon": 8.5855947}, {"type": "node", "id": 2666910730, "lat": 53.5420475, "lon": 8.5832695}, {"type": "node", "id": 2666910731, "lat": 53.5420585, "lon": 8.5853503}, {"type": "node", "id": 2666910732, "lat": 53.5420604, "lon": 8.5855494}, {"type": "node", "id": 2666910733, "lat": 53.5420676, "lon": 8.5853768}, {"type": "node", "id": 2666910734, "lat": 53.5420778, "lon": 8.5853315}, {"type": "node", "id": 2666910735, "lat": 53.5420814, "lon": 8.5853419}, {"type": "node", "id": 2666910736, "lat": 53.5420918, "lon": 8.5850643}, {"type": "node", "id": 2666910737, "lat": 53.5420934, "lon": 8.585069}, {"type": "node", "id": 2666910738, "lat": 53.5420937, "lon": 8.5853411}, {"type": "node", "id": 2666910739, "lat": 53.5420945, "lon": 8.585375}, {"type": "node", "id": 2666910740, "lat": 53.542076, "lon": 8.5840308}, {"type": "node", "id": 2666910741, "lat": 53.5421215, "lon": 8.5834857}, {"type": "node", "id": 2666910744, "lat": 53.5421602, "lon": 8.584998}, {"type": "node", "id": 2666910745, "lat": 53.5421618, "lon": 8.5850027}, {"type": "node", "id": 2666910746, "lat": 53.5421802, "lon": 8.5852324}, {"type": "node", "id": 2666910747, "lat": 53.5421893, "lon": 8.5852591}, {"type": "node", "id": 2666910748, "lat": 53.5421982, "lon": 8.5852149}, {"type": "node", "id": 2666910749, "lat": 53.5422014, "lon": 8.5852243}, {"type": "node", "id": 2666910750, "lat": 53.5422088, "lon": 8.5849509}, {"type": "node", "id": 2666910751, "lat": 53.5422104, "lon": 8.5849556}, {"type": "node", "id": 2666910755, "lat": 53.5422154, "lon": 8.5852233}, {"type": "node", "id": 2666910756, "lat": 53.5422162, "lon": 8.5852573}, {"type": "node", "id": 2666910757, "lat": 53.5422201, "lon": 8.5842589}, {"type": "node", "id": 2666910758, "lat": 53.542255, "lon": 8.5842251}, {"type": "node", "id": 2666910759, "lat": 53.5422784, "lon": 8.5848835}, {"type": "node", "id": 2666910760, "lat": 53.54228, "lon": 8.5848882}, {"type": "node", "id": 2666910761, "lat": 53.5422987, "lon": 8.5851175}, {"type": "node", "id": 2666910762, "lat": 53.5423031, "lon": 8.5848595}, {"type": "node", "id": 2666910763, "lat": 53.5423076, "lon": 8.5841741}, {"type": "node", "id": 2666910764, "lat": 53.5423084, "lon": 8.5851457}, {"type": "node", "id": 2666910765, "lat": 53.542318, "lon": 8.5850988}, {"type": "node", "id": 2666910766, "lat": 53.5423221, "lon": 8.5851108}, {"type": "node", "id": 2666910767, "lat": 53.5423345, "lon": 8.5851099}, {"type": "node", "id": 2666910768, "lat": 53.5423353, "lon": 8.5851439}, {"type": "node", "id": 2666910769, "lat": 53.5423447, "lon": 8.5841382}, {"type": "node", "id": 2666910772, "lat": 53.542355, "lon": 8.584653}, {"type": "node", "id": 2666910773, "lat": 53.5423683, "lon": 8.5850501}, {"type": "node", "id": 2666910775, "lat": 53.5424166, "lon": 8.5855965}, {"type": "node", "id": 2666910779, "lat": 53.5424425, "lon": 8.5845682}, {"type": "node", "id": 2666910780, "lat": 53.5424611, "lon": 8.5857697}, {"type": "node", "id": 2666953031, "lat": 53.5418392, "lon": 8.5820362}, {"type": "node", "id": 2666953033, "lat": 53.5419154, "lon": 8.5822621}, {"type": "node", "id": 2666953035, "lat": 53.5419192, "lon": 8.5819598}, {"type": "node", "id": 2666953039, "lat": 53.5419954, "lon": 8.5821857}, {"type": "node", "id": 2666953041, "lat": 53.541997, "lon": 8.5825041}, {"type": "node", "id": 2666953043, "lat": 53.5420071, "lon": 8.5821745}, {"type": "node", "id": 2666953045, "lat": 53.5420509, "lon": 8.5818342}, {"type": "node", "id": 2666953046, "lat": 53.5420546, "lon": 8.582675}, {"type": "node", "id": 2666953048, "lat": 53.542086, "lon": 8.5819388}, {"type": "node", "id": 2666953050, "lat": 53.5420887, "lon": 8.5824166}, {"type": "node", "id": 2666953052, "lat": 53.5421069, "lon": 8.5820009}, {"type": "node", "id": 2666953054, "lat": 53.5421133, "lon": 8.5824102}, {"type": "node", "id": 2666953056, "lat": 53.5421233, "lon": 8.582085}, {"type": "node", "id": 2666953057, "lat": 53.5421322, "lon": 8.5820765}, {"type": "node", "id": 2666953058, "lat": 53.5421463, "lon": 8.5825875}, {"type": "node", "id": 2666953059, "lat": 53.542165, "lon": 8.5818637}, {"type": "node", "id": 2666953060, "lat": 53.5421657, "lon": 8.5825664}, {"type": "node", "id": 2666953061, "lat": 53.5421739, "lon": 8.582236}, {"type": "node", "id": 2666953062, "lat": 53.5421988, "lon": 8.5823289}, {"type": "node", "id": 2666953063, "lat": 53.5422051, "lon": 8.5818256}, {"type": "node", "id": 2666953065, "lat": 53.5422198, "lon": 8.5816735}, {"type": "node", "id": 2666953067, "lat": 53.5422513, "lon": 8.5819633}, {"type": "node", "id": 2666953069, "lat": 53.5422512, "lon": 8.582485}, {"type": "node", "id": 2666953071, "lat": 53.542255, "lon": 8.5817782}, {"type": "node", "id": 2666953115, "lat": 53.5422619, "lon": 8.5821524}, {"type": "node", "id": 2666953117, "lat": 53.5422915, "lon": 8.5822408}, {"type": "node", "id": 2666953119, "lat": 53.5423745, "lon": 8.5815265}, {"type": "node", "id": 2666953121, "lat": 53.5423861, "lon": 8.5821687}, {"type": "node", "id": 2666953122, "lat": 53.5424559, "lon": 8.5817688}, {"type": "node", "id": 2671242461, "lat": 53.5421557, "lon": 8.5835856, "tags": {"addr:city": "Bremerhaven", "addr:country": "DE", "addr:housenumber": "13", "addr:postcode": "27568", "addr:street": "L\u00f6ningstra\u00dfe", "entrance": "yes"}}, {"type": "node", "id": 2671242464, "lat": 53.5422758, "lon": 8.5839367, "tags": {"addr:city": "Bremerhaven", "addr:country": "DE", "addr:housenumber": "15", "addr:postcode": "27568", "addr:street": "L\u00f6ningstra\u00dfe", "entrance": "yes"}}, {"type": "node", "id": 2671242469, "lat": 53.5418292, "lon": 8.5836289, "tags": {"addr:city": "Bremerhaven", "addr:country": "DE", "addr:housenumber": "2-4", "addr:postcode": "27568", "addr:street": "Osterstra\u00dfe", "entrance": "yes"}}, {"type": "node", "id": 2671242474, "lat": 53.5420801, "lon": 8.5860373, "tags": {"addr:city": "Bremerhaven", "addr:country": "DE", "addr:housenumber": "23a", "addr:postcode": "27568", "addr:street": "Deichstra\u00dfe", "entrance": "yes"}}, {"type": "node", "id": 2671242475, "lat": 53.5417502, "lon": 8.5853888, "tags": {"addr:city": "Bremerhaven", "addr:country": "DE", "addr:housenumber": "25", "addr:postcode": "27568", "addr:street": "Grabenstra\u00dfe", "entrance": "yes"}}, {"type": "node", "id": 2671242477, "lat": 53.5416545, "lon": 8.5853451, "tags": {"addr:city": "Bremerhaven", "addr:country": "DE", "addr:housenumber": "27", "addr:postcode": "27568", "addr:street": "Grabenstra\u00dfe", "entrance": "yes"}}, {"type": "node", "id": 2671242479, "lat": 53.5420941, "lon": 8.5853598, "tags": {"addr:city": "Bremerhaven", "addr:country": "DE", "addr:housenumber": "31", "addr:postcode": "27568", "addr:street": "Grabenstra\u00dfe", "entrance": "yes"}}, {"type": "node", "id": 2671242485, "lat": 53.5422158, "lon": 8.5852397, "tags": {"addr:city": "Bremerhaven", "addr:country": "DE", "addr:housenumber": "33", "addr:postcode": "27568", "addr:street": "Grabenstra\u00dfe", "entrance": "yes"}}, {"type": "node", "id": 2671242487, "lat": 53.5423349, "lon": 8.5851278, "tags": {"addr:city": "Bremerhaven", "addr:country": "DE", "addr:housenumber": "35", "addr:postcode": "27568", "addr:street": "Grabenstra\u00dfe", "entrance": "yes"}}, {"type": "node", "id": 2671242496, "lat": 53.5416995, "lon": 8.5830543, "tags": {"addr:city": "Bremerhaven", "addr:country": "DE", "addr:housenumber": "5", "addr:postcode": "27568", "addr:street": "Osterstra\u00dfe", "entrance": "yes"}}, {"type": "node", "id": 2671242500, "lat": 53.5417712, "lon": 8.5838646, "tags": {"addr:city": "Bremerhaven", "addr:country": "DE", "addr:housenumber": "6", "addr:postcode": "27568", "addr:street": "Osterstra\u00dfe", "entrance": "yes"}}, {"type": "node", "id": 2671242506, "lat": 53.5415611, "lon": 8.5831125, "tags": {"addr:city": "Bremerhaven", "addr:country": "DE", "addr:housenumber": "7", "addr:postcode": "27568", "addr:street": "Osterstra\u00dfe", "entrance": "yes"}}, {"type": "node", "id": 2671242512, "lat": 53.5417436, "lon": 8.5839765, "tags": {"addr:city": "Bremerhaven", "addr:country": "DE", "addr:housenumber": "8", "addr:postcode": "27568", "addr:street": "Osterstra\u00dfe", "entrance": "yes"}}, {"type": "node", "id": 2671242518, "lat": 53.5415929, "lon": 8.5833461, "tags": {"addr:city": "Bremerhaven", "addr:country": "DE", "addr:housenumber": "9", "addr:postcode": "27568", "addr:street": "Osterstra\u00dfe", "entrance": "yes"}}, {"type": "node", "id": 2671242523, "lat": 53.5407118, "lon": 8.584726, "tags": {"entrance": "secondary", "level": "0", "wheelchair": "yes"}}, {"type": "node", "id": 2671242525, "lat": 53.5410184, "lon": 8.5856058, "tags": {"entrance": "yes"}}, {"type": "node", "id": 2671242526, "lat": 53.5410715, "lon": 8.5852284}, {"type": "node", "id": 2671242527, "lat": 53.541128, "lon": 8.5849808}, {"type": "node", "id": 2671242530, "lat": 53.5411874, "lon": 8.5853033, "tags": {"barrier": "lift_gate"}}, {"type": "node", "id": 2671242532, "lat": 53.5412968, "lon": 8.585374}, {"type": "node", "id": 2671242535, "lat": 53.5413533, "lon": 8.5851263}, {"type": "node", "id": 2671242536, "lat": 53.541376, "lon": 8.5851217, "tags": {"entrance": "yes"}}, {"type": "node", "id": 2671242538, "lat": 53.5415374, "lon": 8.5848013, "tags": {"amenity": "vending_machine", "name": "Grabenstra\u00dfe", "payment:account_cards": "no", "payment:coins": "yes", "payment:credit_cards": "no", "payment:debit_cards": "no", "payment:electronic_purses": "no", "payment:ep_geldkarte": "no", "payment:notes": "no", "ref": "84", "vending": "parking_tickets"}}, {"type": "node", "id": 2671242540, "lat": 53.5415707, "lon": 8.5830744}, {"type": "node", "id": 2671242541, "lat": 53.5416332, "lon": 8.5827444}, {"type": "node", "id": 2671242542, "lat": 53.5416471, "lon": 8.5831301}, {"type": "node", "id": 2671242546, "lat": 53.5417171, "lon": 8.5826659}, {"type": "node", "id": 2671242548, "lat": 53.541792, "lon": 8.5833794, "tags": {"amenity": "vending_machine", "name": "Osterstra\u00dfe 1", "payment:account_cards": "no", "payment:coins": "yes", "payment:credit_cards": "no", "payment:debit_cards": "no", "payment:electronic_purses": "no", "payment:ep_geldkarte": "yes", "payment:notes": "no", "ref": "1", "vending": "parking_tickets"}}, {"type": "node", "id": 2671242549, "lat": 53.541902, "lon": 8.5822622, "tags": {"amenity": "vending_machine", "name": "L\u00f6ningstra\u00dfe 1", "payment:account_cards": "no", "payment:coins": "yes", "payment:credit_cards": "no", "payment:debit_cards": "no", "payment:electronic_purses": "no", "payment:ep_geldkarte": "yes", "payment:notes": "no", "ref": "7", "vending": "parking_tickets"}}, {"type": "node", "id": 2671242550, "lat": 53.5420956, "lon": 8.5832873, "tags": {"amenity": "vending_machine", "name": "L\u00f6ningstra\u00dfe 2", "payment:account_cards": "no", "payment:coins": "yes", "payment:credit_cards": "no", "payment:debit_cards": "no", "payment:electronic_purses": "no", "payment:ep_geldkarte": "yes", "payment:notes": "no", "ref": "8", "vending": "parking_tickets"}}, {"type": "node", "id": 2671242556, "lat": 53.5422327, "lon": 8.582852, "tags": {"entrance": "yes"}}, {"type": "node", "id": 2671242560, "lat": 53.5422921, "lon": 8.5848701}, {"type": "node", "id": 2671242564, "lat": 53.542356, "lon": 8.585062}, {"type": "node", "id": 2671242566, "lat": 53.5423726, "lon": 8.5826387}, {"type": "node", "id": 2671242575, "lat": 53.5424207, "lon": 8.5827897}, {"type": "node", "id": 2673139448, "lat": 53.5411397, "lon": 8.5812325, "tags": {"addr:city": "Bremerhaven", "addr:country": "DE", "addr:housenumber": "10", "addr:postcode": "27568", "addr:street": "Theodor-Heuss-Platz", "entrance": "yes"}}, {"type": "node", "id": 2673139464, "lat": 53.5412263, "lon": 8.5807911, "tags": {"addr:city": "Bremerhaven", "addr:country": "DE", "addr:housenumber": "7", "addr:postcode": "27568", "addr:street": "Linzer Stra\u00dfe", "entrance": "yes"}}, {"type": "node", "id": 2673139467, "lat": 53.5412773, "lon": 8.5809453, "tags": {"addr:city": "Bremerhaven", "addr:country": "DE", "addr:housenumber": "9", "addr:postcode": "27568", "addr:street": "Linzer Stra\u00dfe", "entrance": "yes"}}, {"type": "node", "id": 2673139473, "lat": 53.5406082, "lon": 8.5839905, "tags": {"amenity": "vending_machine", "check_date": "2022-05-25", "name": "F\u00e4hrstra\u00dfe 1", "payment:account_cards": "no", "payment:coins": "yes", "payment:credit_cards": "no", "payment:debit_cards": "no", "payment:electronic_purses": "no", "payment:ep_geldkarte": "yes", "payment:notes": "no", "ref": "11", "vending": "parking_tickets"}}, {"type": "node", "id": 2673139474, "lat": 53.5409796, "lon": 8.5852012, "tags": {"amenity": "recycling", "location": "overground", "recycling:clothes": "yes", "recycling:glass_bottles": "yes", "recycling_type": "container"}}, {"type": "node", "id": 2849835507, "lat": 53.5419646, "lon": 8.5854582, "tags": {"addr:country": "DE", "addr:housenumber": "29", "addr:street": "Grabenstra\u00dfe"}}, {"type": "node", "id": 2906863867, "lat": 53.5399083, "lon": 8.5814782, "tags": {"addr:city": "Bremerhaven", "addr:country": "DE", "addr:housenumber": "1", "addr:postcode": "27568", "addr:street": "Erich-Koch-Weser-Platz", "amenity": "dentist", "healthcare": "dentist", "name": "Wolfgang Kriebel", "opening_hours": "Mo,Tu,Th,Fr 07:00-12:00,14:30-18:00; We 07:30-12:00", "phone": "+49 471 501828"}}, {"type": "node", "id": 2924827230, "lat": 53.5386696, "lon": 8.5866169}, {"type": "node", "id": 2924827231, "lat": 53.5386842, "lon": 8.586519}, {"type": "node", "id": 2924827232, "lat": 53.5387294, "lon": 8.586443}, {"type": "node", "id": 2924827242, "lat": 53.5388218, "lon": 8.5866815}, {"type": "node", "id": 2924827244, "lat": 53.5388499, "lon": 8.5865131}, {"type": "node", "id": 2924827251, "lat": 53.5389706, "lon": 8.5867447}, {"type": "node", "id": 2924827252, "lat": 53.5389939, "lon": 8.5865897}, {"type": "node", "id": 3196157114, "lat": 53.5400758, "lon": 8.5831616, "tags": {"addr:city": "Bremerhaven", "addr:country": "DE", "addr:postcode": "27568", "amenity": "fast_food", "cuisine": "fast_food", "delivery": "no", "diet:vegan": "yes", "diet:vegetarian": "yes", "indoor": "yes", "indoor_seating": "yes", "level": "0", "name": "Cafeteria Bremerhaven", "opening_hours": "Mo-Th 08:00-16:00, Fr 08:00-15:00", "operator": "Studierendenwerk Bremen", "outdoor_seating": "yes", "takeaway": "yes"}}, {"type": "node", "id": 3373343718, "lat": 53.5403936, "lon": 8.584375}, {"type": "node", "id": 3373343719, "lat": 53.5404125, "lon": 8.5844362}, {"type": "node", "id": 3373343720, "lat": 53.5404205, "lon": 8.5844036}, {"type": "node", "id": 3373343722, "lat": 53.5404286, "lon": 8.5842676}, {"type": "node", "id": 3373343723, "lat": 53.5404295, "lon": 8.5844807}, {"type": "node", "id": 3373343724, "lat": 53.5404361, "lon": 8.584464}, {"type": "node", "id": 3373343725, "lat": 53.5404413, "lon": 8.584278}, {"type": "node", "id": 3373343726, "lat": 53.5404527, "lon": 8.5840797}, {"type": "node", "id": 3373343727, "lat": 53.540452, "lon": 8.5842341}, {"type": "node", "id": 3373343728, "lat": 53.5404617, "lon": 8.5842037}, {"type": "node", "id": 3373343729, "lat": 53.5404898, "lon": 8.5841166}, {"type": "node", "id": 3373343730, "lat": 53.5404971, "lon": 8.5840969}, {"type": "node", "id": 3373343731, "lat": 53.5405609, "lon": 8.5843837}, {"type": "node", "id": 3373343732, "lat": 53.5405689, "lon": 8.5843464}, {"type": "node", "id": 3373343733, "lat": 53.5405996, "lon": 8.584216}, {"type": "node", "id": 3374799710, "lat": 53.5402576, "lon": 8.5824452}, {"type": "node", "id": 3374799712, "lat": 53.5403425, "lon": 8.5832469}, {"type": "node", "id": 3374799715, "lat": 53.5404429, "lon": 8.5829858}, {"type": "node", "id": 3375740215, "lat": 53.539811, "lon": 8.5829299}, {"type": "node", "id": 3375740217, "lat": 53.5399716, "lon": 8.5827748}, {"type": "node", "id": 3515358593, "lat": 53.5398834, "lon": 8.5853442, "tags": {"amenity": "bench", "backrest": "yes"}}, {"type": "node", "id": 3515358594, "lat": 53.539917, "lon": 8.5853844, "tags": {"amenity": "bench", "backrest": "yes"}}, {"type": "node", "id": 3515911008, "lat": 53.5408655, "lon": 8.583201}, {"type": "node", "id": 3515911010, "lat": 53.5408802, "lon": 8.5832107}, {"type": "node", "id": 3515911011, "lat": 53.5408852, "lon": 8.5831167}, {"type": "node", "id": 3515911013, "lat": 53.5408999, "lon": 8.5831264}, {"type": "node", "id": 3515911023, "lat": 53.5410282, "lon": 8.5832238}, {"type": "node", "id": 3515911024, "lat": 53.5410427, "lon": 8.5832342}, {"type": "node", "id": 3515911025, "lat": 53.5410491, "lon": 8.5831404}, {"type": "node", "id": 3515911026, "lat": 53.5410636, "lon": 8.5831507}, {"type": "node", "id": 3516032323, "lat": 53.5400136, "lon": 8.5826084}, {"type": "node", "id": 3517361944, "lat": 53.5419399, "lon": 8.5810011, "tags": {"addr:city": "Bremerhaven", "addr:country": "DE", "addr:housenumber": "9", "addr:postcode": "27568", "addr:street": "B\u00fcrgermeister-Smidt-Stra\u00dfe", "amenity": "bank", "brand": "Deutsche Bank", "brand:wikidata": "Q66048", "brand:wikipedia": "en:Deutsche Bank", "name": "Deutsche Bank", "opening_hours": "Mo-Fr 09:30-13:00, Mo 14:00-18:00, Tu,Th 14:00-16:00", "toilets:wheelchair": "no", "website": "https://www.deutsche-bank.de", "wheelchair": "yes"}}, {"type": "node", "id": 3517361946, "lat": 53.5407937, "lon": 8.5832188, "tags": {"addr:city": "Bremerhaven", "addr:country": "DE", "addr:housenumber": "3", "addr:postcode": "27568", "addr:street": "F\u00e4hrstra\u00dfe"}}, {"type": "node", "id": 3517361948, "lat": 53.5403483, "lon": 8.5820992, "tags": {"access": "yes", "amenity": "bicycle_parking", "bicycle_parking": "stands", "capacity": "8", "covered": "no"}}, {"type": "node", "id": 3517361949, "lat": 53.5405461, "lon": 8.5818837, "tags": {"access": "yes", "amenity": "bicycle_parking", "bicycle_parking": "stands", "capacity": "18", "covered": "no"}}, {"type": "node", "id": 3519425413, "lat": 53.5409335, "lon": 8.5819992, "tags": {"amenity": "bicycle_parking", "bicycle_parking": "stands", "capacity": "8", "check_date:capacity": "2021-02-04", "covered": "no"}}, {"type": "node", "id": 3519425414, "lat": 53.540994, "lon": 8.5826684, "tags": {"amenity": "bicycle_parking", "bicycle_parking": "stands", "capacity": "8", "check_date:capacity": "2023-07-13", "covered": "no"}}, {"type": "node", "id": 3519425415, "lat": 53.5410719, "lon": 8.582525, "tags": {"amenity": "bicycle_parking", "bicycle_parking": "stands", "capacity": "14", "check_date:capacity": "2023-07-13", "covered": "no"}}, {"type": "node", "id": 3519425416, "lat": 53.5411397, "lon": 8.5827773, "tags": {"amenity": "bicycle_parking", "bicycle_parking": "stands", "capacity": "8", "check_date:capacity": "2023-07-13", "covered": "no"}}, {"type": "node", "id": 3519425417, "lat": 53.5411823, "lon": 8.5824321, "tags": {"amenity": "bicycle_parking", "bicycle_parking": "stands", "capacity": "4", "check_date:capacity": "2023-07-13", "covered": "no"}}, {"type": "node", "id": 3554579892, "lat": 53.5408831, "lon": 8.5827357, "tags": {"addr:city": "Bremerhaven", "addr:housenumber": "3", "addr:postcode": "27568", "addr:street": "Theodor-Heuss-Platz", "entrance": "main"}}, {"type": "node", "id": 3961218238, "lat": 53.5399198, "lon": 8.5847768}, {"type": "node", "id": 3961218239, "lat": 53.5399373, "lon": 8.5842817}, {"type": "node", "id": 3961218240, "lat": 53.5399633, "lon": 8.5848187}, {"type": "node", "id": 3961218242, "lat": 53.5400744, "lon": 8.5848321, "tags": {"air_conditioning": "no", "amenity": "restaurant", "contact:fax": "+49 471 97167902", "contact:phone": "+49 471 97167901", "contact:website": "http://www.villaseebeck.de/", "diet:vegetarian": "yes", "indoor_seating": "yes", "name": "Villa Seebeck", "opening_hours": "Mo-Su 11:00-23:00", "operator": "Thomas Kretschmer", "outdoor_seating": "yes", "payment:credit_cards": "yes", "payment:debit_cards": "yes", "smoking": "outside", "toilets:wheelchair": "yes", "wheelchair": "yes"}}, {"type": "node", "id": 4361943053, "lat": 53.5411306, "lon": 8.5848796}, {"type": "node", "id": 4361947032, "lat": 53.5417376, "lon": 8.5840011}, {"type": "node", "id": 4388662788, "lat": 53.53897, "lon": 8.5862478}, {"type": "node", "id": 4388662989, "lat": 53.5390279, "lon": 8.5863305}, {"type": "node", "id": 4388662990, "lat": 53.5390574, "lon": 8.5862766}, {"type": "node", "id": 4388662991, "lat": 53.5390808, "lon": 8.5862941}, {"type": "node", "id": 4388662992, "lat": 53.5390392, "lon": 8.5864485}, {"type": "node", "id": 4388662994, "lat": 53.5389162, "lon": 8.5863441}, {"type": "node", "id": 4388678868, "lat": 53.5392716, "lon": 8.5832838, "tags": {"amenity": "bench", "backrest": "no", "check_date": "2020-12-28"}}, {"type": "node", "id": 4388678869, "lat": 53.5392686, "lon": 8.5831309, "tags": {"amenity": "bench", "backrest": "no", "check_date": "2020-12-28"}}, {"type": "node", "id": 4402084130, "lat": 53.5414315, "lon": 8.5840662}, {"type": "node", "id": 4402084133, "lat": 53.5415164, "lon": 8.5844745}, {"type": "node", "id": 4402084136, "lat": 53.5413588, "lon": 8.584368}, {"type": "node", "id": 4402084138, "lat": 53.5416664, "lon": 8.5838588, "tags": {"access": "private", "barrier": "lift_gate"}}, {"type": "node", "id": 4402084139, "lat": 53.541119, "lon": 8.5834698, "tags": {"access": "private", "barrier": "lift_gate"}}, {"type": "node", "id": 4402084141, "lat": 53.5417195, "lon": 8.5836429}, {"type": "node", "id": 4402084142, "lat": 53.5415649, "lon": 8.5835311}, {"type": "node", "id": 4402084942, "lat": 53.5409701, "lon": 8.5841569}, {"type": "node", "id": 4402084943, "lat": 53.5414793, "lon": 8.5846385, "tags": {"access": "private", "barrier": "lift_gate"}}, {"type": "node", "id": 4402084944, "lat": 53.5414526, "lon": 8.5847592}, {"type": "node", "id": 4402088178, "lat": 53.5412032, "lon": 8.5845276}, {"type": "node", "id": 4402088179, "lat": 53.5411876, "lon": 8.5845888}, {"type": "node", "id": 4402088180, "lat": 53.54115, "lon": 8.5845618}, {"type": "node", "id": 4402088181, "lat": 53.5411655, "lon": 8.5845006}, {"type": "node", "id": 4402090989, "lat": 53.5408809, "lon": 8.584105}, {"type": "node", "id": 4402090990, "lat": 53.5409675, "lon": 8.5841672}, {"type": "node", "id": 4402090992, "lat": 53.5407605, "lon": 8.5845874}, {"type": "node", "id": 4402090993, "lat": 53.5407477, "lon": 8.5845798}, {"type": "node", "id": 4402090994, "lat": 53.5408161, "lon": 8.5843554}, {"type": "node", "id": 4402090995, "lat": 53.5408076, "lon": 8.5843473}, {"type": "node", "id": 4402090996, "lat": 53.5408563, "lon": 8.584204}, {"type": "node", "id": 4402090997, "lat": 53.5408423, "lon": 8.5841902}, {"type": "node", "id": 4402090998, "lat": 53.540858, "lon": 8.5841461}, {"type": "node", "id": 4402090999, "lat": 53.5408683, "lon": 8.5841543}, {"type": "node", "id": 4402091000, "lat": 53.5408702, "lon": 8.5840975}, {"type": "node", "id": 4402092843, "lat": 53.5408957, "lon": 8.5847088, "tags": {"entrance": "secondary", "level": "0", "wheelchair": "no"}}, {"type": "node", "id": 4402095757, "lat": 53.5412174, "lon": 8.583105}, {"type": "node", "id": 4402095758, "lat": 53.5410392, "lon": 8.583787}, {"type": "node", "id": 4402095760, "lat": 53.5409877, "lon": 8.5840874}, {"type": "node", "id": 4402095761, "lat": 53.5409672, "lon": 8.5840734}, {"type": "node", "id": 4402095762, "lat": 53.5409996, "lon": 8.5839442}, {"type": "node", "id": 4402095763, "lat": 53.5411107, "lon": 8.5835017}, {"type": "node", "id": 4402095768, "lat": 53.5413296, "lon": 8.5827671}, {"type": "node", "id": 4402106379, "lat": 53.5411138, "lon": 8.5840204}, {"type": "node", "id": 4402106380, "lat": 53.5410769, "lon": 8.5841735}, {"type": "node", "id": 4402106381, "lat": 53.5409824, "lon": 8.584109}, {"type": "node", "id": 4403708434, "lat": 53.5410017, "lon": 8.5834737, "tags": {"addr:city": "Bremerhaven", "addr:housenumber": "12", "addr:postcode": "27568", "addr:street": "F\u00e4hrstra\u00dfe", "entrance": "yes"}}, {"type": "node", "id": 4403708435, "lat": 53.5409582, "lon": 8.5836472, "tags": {"addr:city": "Bremerhaven", "addr:housenumber": "14", "addr:postcode": "27568", "addr:street": "F\u00e4hrstra\u00dfe", "entrance": "yes"}}, {"type": "node", "id": 5005797593, "lat": 53.5415229, "lon": 8.5811023, "tags": {"amenity": "fountain", "wikidata": "Q1002581", "wikipedia": "de:Bugwelle von Bremerhaven"}}, {"type": "node", "id": 5465039036, "lat": 53.5411039, "lon": 8.5849464, "tags": {"access": "private", "amenity": "parking", "layer": "-1", "parking": "underground"}}, {"type": "node", "id": 5940986985, "lat": 53.5449319, "lon": 8.5789694}, {"type": "node", "id": 6516983332, "lat": 53.5396149, "lon": 8.5814528}, {"type": "node", "id": 6516983333, "lat": 53.5412377, "lon": 8.5799013}, {"type": "node", "id": 6516983334, "lat": 53.540085, "lon": 8.5810156}, {"type": "node", "id": 6516983335, "lat": 53.5399759, "lon": 8.5810183}, {"type": "node", "id": 6516983336, "lat": 53.5398914, "lon": 8.5810062}, {"type": "node", "id": 6516983337, "lat": 53.5402269, "lon": 8.5798569}, {"type": "node", "id": 6516983338, "lat": 53.5400476, "lon": 8.5801761}, {"type": "node", "id": 6516983339, "lat": 53.5399009, "lon": 8.5805435}, {"type": "node", "id": 6516983340, "lat": 53.5398842, "lon": 8.5806562}, {"type": "node", "id": 6516983341, "lat": 53.5399105, "lon": 8.5807621}, {"type": "node", "id": 6516983342, "lat": 53.5399535, "lon": 8.5808252}, {"type": "node", "id": 6516983343, "lat": 53.5400412, "lon": 8.5808627}, {"type": "node", "id": 6516983344, "lat": 53.540136, "lon": 8.5808453}, {"type": "node", "id": 6516983345, "lat": 53.5409792, "lon": 8.579991}, {"type": "node", "id": 6516983346, "lat": 53.5407577, "lon": 8.5793634}, {"type": "node", "id": 6585218601, "lat": 53.5409426, "lon": 8.5830111, "tags": {"amenity": "telephone", "brand": "Deutsche Telekom", "brand:wikidata": "Q9396", "check_date": "2023-07-13", "covered": "no", "internet_access": "wlan", "internet_access:fee": "yes", "operator": "Deutsche Telekom AG", "operator:wikidata": "Q9396", "payment:coins": "yes", "payment:credit_cards": "yes", "payment:telephone_cards": "yes"}}, {"type": "node", "id": 6910330828, "lat": 53.5426429, "lon": 8.5774144}, {"type": "node", "id": 6910330829, "lat": 53.5409692, "lon": 8.5791501}, {"type": "node", "id": 6910330831, "lat": 53.5409476, "lon": 8.5787884}, {"type": "node", "id": 6910330832, "lat": 53.5440088, "lon": 8.5758533}, {"type": "node", "id": 6910330833, "lat": 53.5425723, "lon": 8.5772135}, {"type": "node", "id": 6910330834, "lat": 53.5432273, "lon": 8.5768567}, {"type": "node", "id": 6910330835, "lat": 53.5409619, "lon": 8.5788409}, {"type": "node", "id": 6910330836, "lat": 53.5431577, "lon": 8.5766553}, {"type": "node", "id": 7815595707, "lat": 53.5395884, "lon": 8.5829936, "tags": {"amenity": "bench", "backrest": "no"}}, {"type": "node", "id": 7815719817, "lat": 53.5394975, "lon": 8.5829474, "tags": {"amenity": "bench", "backrest": "no"}}, {"type": "node", "id": 7815770157, "lat": 53.5394792, "lon": 8.5830998, "tags": {"amenity": "bicycle_parking", "bicycle_parking": "stands", "capacity": "16", "covered": "no"}}, {"type": "node", "id": 7881814993, "lat": 53.5384041, "lon": 8.5852021}, {"type": "node", "id": 7881814996, "lat": 53.5386975, "lon": 8.5852548}, {"type": "node", "id": 7881814997, "lat": 53.5384441, "lon": 8.5854989}, {"type": "node", "id": 7881814998, "lat": 53.5383373, "lon": 8.5853053}, {"type": "node", "id": 7881814999, "lat": 53.53846, "lon": 8.5854775}, {"type": "node", "id": 7881815000, "lat": 53.5385652, "lon": 8.5856733}, {"type": "node", "id": 7881815001, "lat": 53.5388681, "lon": 8.5854882}, {"type": "node", "id": 7902494702, "lat": 53.5394068, "lon": 8.5810304}, {"type": "node", "id": 7902494703, "lat": 53.5388155, "lon": 8.5804349}, {"type": "node", "id": 7902494704, "lat": 53.5384361, "lon": 8.5809084}, {"type": "node", "id": 7902494705, "lat": 53.5384281, "lon": 8.5810786}, {"type": "node", "id": 7902494706, "lat": 53.538994, "lon": 8.5823688}, {"type": "node", "id": 7902494707, "lat": 53.5387758, "lon": 8.5810828}, {"type": "node", "id": 7902494708, "lat": 53.538829, "lon": 8.581015}, {"type": "node", "id": 7902494709, "lat": 53.5387291, "lon": 8.5825644}, {"type": "node", "id": 7902494710, "lat": 53.5387897, "lon": 8.5826954}, {"type": "node", "id": 7902494711, "lat": 53.5389204, "lon": 8.5825242}, {"type": "node", "id": 7902494712, "lat": 53.5388597, "lon": 8.5823931}, {"type": "node", "id": 7988217212, "lat": 53.5415521, "lon": 8.5799017}, {"type": "node", "id": 7988217213, "lat": 53.5416998, "lon": 8.5797571}, {"type": "node", "id": 7988217214, "lat": 53.5416573, "lon": 8.5802061}, {"type": "node", "id": 7988217215, "lat": 53.5419416, "lon": 8.5804842}, {"type": "node", "id": 7988217216, "lat": 53.5417979, "lon": 8.5800685}, {"type": "node", "id": 8023031671, "lat": 53.5410513, "lon": 8.5833313}, {"type": "node", "id": 8023031672, "lat": 53.541123, "lon": 8.583037}, {"type": "node", "id": 8023031673, "lat": 53.5415468, "lon": 8.5828078}, {"type": "node", "id": 8023031674, "lat": 53.5416364, "lon": 8.5827241}, {"type": "node", "id": 8023031675, "lat": 53.5414363, "lon": 8.5826951}, {"type": "node", "id": 8023031676, "lat": 53.5415216, "lon": 8.5829533}, {"type": "node", "id": 8023031677, "lat": 53.5415776, "lon": 8.5829009}, {"type": "node", "id": 8023031678, "lat": 53.5414923, "lon": 8.5826427}, {"type": "node", "id": 8023031679, "lat": 53.541413, "lon": 8.5827169}, {"type": "node", "id": 8023031680, "lat": 53.5413852, "lon": 8.5826326}, {"type": "node", "id": 8023031681, "lat": 53.5414293, "lon": 8.5832282}, {"type": "node", "id": 8023031682, "lat": 53.5414812, "lon": 8.5830315}, {"type": "node", "id": 8023031683, "lat": 53.5414352, "lon": 8.5829971}, {"type": "node", "id": 8023031684, "lat": 53.5414082, "lon": 8.5830993}, {"type": "node", "id": 8023049085, "lat": 53.541269, "lon": 8.5829953}, {"type": "node", "id": 8023049086, "lat": 53.5412441, "lon": 8.5830899}, {"type": "node", "id": 8066426417, "lat": 53.5422408, "lon": 8.5827664}, {"type": "node", "id": 8066426418, "lat": 53.5422615, "lon": 8.5828269}, {"type": "node", "id": 8066426419, "lat": 53.5423427, "lon": 8.5827482}, {"type": "node", "id": 8066446044, "lat": 53.5413607, "lon": 8.5857103}, {"type": "node", "id": 8066446045, "lat": 53.5413697, "lon": 8.5856694}, {"type": "node", "id": 8066446046, "lat": 53.5420262, "lon": 8.5863165}, {"type": "node", "id": 8066446047, "lat": 53.5419819, "lon": 8.5863983}, {"type": "node", "id": 8066446048, "lat": 53.5418973, "lon": 8.5862684}, {"type": "node", "id": 8066446049, "lat": 53.5418553, "lon": 8.5863458}, {"type": "node", "id": 8066446050, "lat": 53.5417678, "lon": 8.5862115}, {"type": "node", "id": 8066446051, "lat": 53.5416772, "lon": 8.5863788}, {"type": "node", "id": 8066446052, "lat": 53.5417398, "lon": 8.5864748}, {"type": "node", "id": 8066446053, "lat": 53.5417819, "lon": 8.5863971}, {"type": "node", "id": 8066446054, "lat": 53.5418785, "lon": 8.5865454}, {"type": "node", "id": 8066446055, "lat": 53.5419173, "lon": 8.5864737}, {"type": "node", "id": 8066446056, "lat": 53.5419991, "lon": 8.5865992}, {"type": "node", "id": 8066446057, "lat": 53.542095, "lon": 8.586422}, {"type": "node", "id": 8078940105, "lat": 53.5409134, "lon": 8.5809176}, {"type": "node", "id": 8078940106, "lat": 53.541142, "lon": 8.5808953}, {"type": "node", "id": 8078940107, "lat": 53.5410039, "lon": 8.5810248}, {"type": "node", "id": 8078940108, "lat": 53.5409553, "lon": 8.5808782}, {"type": "node", "id": 8078940109, "lat": 53.5409445, "lon": 8.5806833}, {"type": "node", "id": 8078940110, "lat": 53.5409591, "lon": 8.5807273}, {"type": "node", "id": 8078940111, "lat": 53.5410063, "lon": 8.5806828}, {"type": "node", "id": 8078940112, "lat": 53.5410396, "lon": 8.580783}, {"type": "node", "id": 8078940113, "lat": 53.5411712, "lon": 8.5809833}, {"type": "node", "id": 8078940114, "lat": 53.5410893, "lon": 8.580736}, {"type": "node", "id": 8078940115, "lat": 53.5411799, "lon": 8.5806511}, {"type": "node", "id": 8124597264, "lat": 53.5419347, "lon": 8.5814481}, {"type": "node", "id": 8124597265, "lat": 53.5420067, "lon": 8.5813804}, {"type": "node", "id": 8124597266, "lat": 53.5420086, "lon": 8.5816706}, {"type": "node", "id": 8124597267, "lat": 53.5419506, "lon": 8.5812171}, {"type": "node", "id": 8124597268, "lat": 53.5419833, "lon": 8.5811858}, {"type": "node", "id": 8124597269, "lat": 53.5420224, "lon": 8.5813014}, {"type": "node", "id": 8124597270, "lat": 53.5419841, "lon": 8.5814825}, {"type": "node", "id": 8124597271, "lat": 53.5420397, "lon": 8.5816469}, {"type": "node", "id": 8124597272, "lat": 53.542101, "lon": 8.5815882}, {"type": "node", "id": 8124597273, "lat": 53.5420454, "lon": 8.5814239}, {"type": "node", "id": 8148609430, "lat": 53.5388095, "lon": 8.5860637}, {"type": "node", "id": 8148609431, "lat": 53.5387742, "lon": 8.5860069}, {"type": "node", "id": 8148609432, "lat": 53.5387395, "lon": 8.586068}, {"type": "node", "id": 8148609433, "lat": 53.5389839, "lon": 8.5862229}, {"type": "node", "id": 8148609434, "lat": 53.538844, "lon": 8.5860015}, {"type": "node", "id": 8148609435, "lat": 53.5387749, "lon": 8.5861248}, {"type": "node", "id": 8148609436, "lat": 53.5388413, "lon": 8.5862256}, {"type": "node", "id": 8148609437, "lat": 53.538909, "lon": 8.5861044}, {"type": "node", "id": 8303897819, "lat": 53.5419898, "lon": 8.5821121}, {"type": "node", "id": 8303897820, "lat": 53.5419338, "lon": 8.5819454}, {"type": "node", "id": 8303897821, "lat": 53.5422277, "lon": 8.5821849}, {"type": "node", "id": 8303897822, "lat": 53.5422429, "lon": 8.5822303}, {"type": "node", "id": 8303897823, "lat": 53.5422771, "lon": 8.5821978}, {"type": "node", "id": 8685682865, "lat": 53.541053, "lon": 8.5860839}, {"type": "node", "id": 8685682866, "lat": 53.5410758, "lon": 8.5859796}, {"type": "node", "id": 8685682867, "lat": 53.5412002, "lon": 8.5860566}, {"type": "node", "id": 8685682868, "lat": 53.541172, "lon": 8.5861819}, {"type": "node", "id": 8685682887, "lat": 53.5421815, "lon": 8.5861502}, {"type": "node", "id": 8685682888, "lat": 53.5421787, "lon": 8.5861866}, {"type": "node", "id": 8685682889, "lat": 53.5421622, "lon": 8.586183}, {"type": "node", "id": 8685682890, "lat": 53.5421583, "lon": 8.5862339}, {"type": "node", "id": 8685682891, "lat": 53.5422274, "lon": 8.5862489}, {"type": "node", "id": 8685682892, "lat": 53.5422341, "lon": 8.5861616}, {"type": "node", "id": 8809381664, "lat": 53.540323, "lon": 8.5847184}, {"type": "node", "id": 8809381666, "lat": 53.5405923, "lon": 8.5849228}, {"type": "node", "id": 8809381667, "lat": 53.5404687, "lon": 8.5848933}, {"type": "node", "id": 8809381668, "lat": 53.5406216, "lon": 8.5842024}, {"type": "node", "id": 8809392947, "lat": 53.5410517, "lon": 8.5852352}, {"type": "node", "id": 8809392951, "lat": 53.5409359, "lon": 8.583469}, {"type": "node", "id": 8809392952, "lat": 53.5407955, "lon": 8.5840407}, {"type": "node", "id": 8830501826, "lat": 53.5411369, "lon": 8.5833977}, {"type": "node", "id": 8883612461, "lat": 53.5420026, "lon": 8.58636, "tags": {"addr:housenumber": "23c", "addr:street": "Deichstra\u00dfe"}}, {"type": "node", "id": 8883612462, "lat": 53.5418755, "lon": 8.5863085, "tags": {"addr:housenumber": "23b", "addr:street": "Deichstra\u00dfe"}}, {"type": "node", "id": 8890461395, "lat": 53.5417906, "lon": 8.5813535}, {"type": "node", "id": 8890552597, "lat": 53.5384201, "lon": 8.5809807}, {"type": "node", "id": 8941282126, "lat": 53.5448443, "lon": 8.5763484}, {"type": "node", "id": 8944832891, "lat": 53.5393391, "lon": 8.5824124}, {"type": "node", "id": 8944832892, "lat": 53.5394642, "lon": 8.5822161, "tags": {"entrance": "main"}}, {"type": "node", "id": 8944832895, "lat": 53.5397526, "lon": 8.582638}, {"type": "node", "id": 8944832896, "lat": 53.5397328, "lon": 8.582658}, {"type": "node", "id": 8944832897, "lat": 53.5396586, "lon": 8.5824441}, {"type": "node", "id": 8944832898, "lat": 53.5393734, "lon": 8.5823122}, {"type": "node", "id": 8944899186, "lat": 53.5393574, "lon": 8.5865664, "tags": {"amenity": "toilets"}}, {"type": "node", "id": 9180287895, "lat": 53.5406073, "lon": 8.5824246, "tags": {"addr:city": "Bremerhaven", "addr:country": "DE", "addr:housenumber": "2", "addr:postcode": "27568", "addr:street": "Karlsburg", "entrance": "main"}}, {"type": "node", "id": 9251098883, "lat": 53.5420408, "lon": 8.5842113}, {"type": "node", "id": 9251098884, "lat": 53.5419157, "lon": 8.5845059}, {"type": "node", "id": 9251098885, "lat": 53.5419488, "lon": 8.5843716}, {"type": "node", "id": 9251098886, "lat": 53.5417728, "lon": 8.5842489}, {"type": "node", "id": 9251098887, "lat": 53.5416576, "lon": 8.5843259}, {"type": "node", "id": 9358561135, "lat": 53.5440928, "lon": 8.5761045}, {"type": "node", "id": 9489936246, "lat": 53.5402991, "lon": 8.584626}, {"type": "node", "id": 9489936247, "lat": 53.5403626, "lon": 8.584503}, {"type": "node", "id": 9493227311, "lat": 53.5408693, "lon": 8.5829132, "tags": {"addr:city": "Bremerhaven", "addr:country": "DE", "addr:housenumber": "1", "addr:postcode": "27568", "addr:street": "F\u00e4hrstra\u00dfe"}}, {"type": "node", "id": 9530925028, "lat": 53.5398757, "lon": 8.5815769, "tags": {"addr:city": "Bremerhaven", "addr:housenumber": "1", "addr:postcode": "27568", "addr:street": "Erich-Koch-Weser-Platz"}}, {"type": "node", "id": 9621126500, "lat": 53.5405578, "lon": 8.582144}, {"type": "node", "id": 9621126501, "lat": 53.5405394, "lon": 8.5820886}, {"type": "node", "id": 9621126502, "lat": 53.5406175, "lon": 8.5820154}, {"type": "node", "id": 9621126503, "lat": 53.5406358, "lon": 8.5820708}, {"type": "node", "id": 9624735735, "lat": 53.5411627, "lon": 8.5811444, "tags": {"amenity": "restaurant", "indoor_seating": "yes", "name": "Souriana", "opening_hours": "Mo,Tu,Th 11:00-22:00, We,Fr,Sa 11:00-08:00, Su 13:00-22:00", "outdoor_seating": "yes"}}, {"type": "node", "id": 9624735745, "lat": 53.5422379, "lon": 8.5806928, "tags": {"addr:city": "Bremerhaven", "addr:country": "DE", "addr:housenumber": "17-19", "addr:postcode": "27568", "addr:street": "B\u00fcrgermeister-Smidt-Stra\u00dfe", "amenity": "restaurant", "cuisine": "indian", "indoor_seating": "yes", "name": "Himalaya Indian Cuisine", "opening_hours": "Tu-Sa 11:30-22:00; Su 12:00-22:00", "outdoor_seating": "yes", "phone": "+4947192691086"}}, {"type": "node", "id": 9721615010, "lat": 53.5417546, "lon": 8.5809043, "tags": {"amenity": "telephone", "brand": "Deutsche Telekom", "brand:wikidata": "Q9396", "check_date": "2022-05-01", "covered": "no", "internet_access": "wlan", "internet_access:fee": "yes", "operator": "Deutsche Telekom AG", "operator:wikidata": "Q9396", "payment:coins": "yes", "payment:credit_cards": "yes", "payment:telephone_cards": "yes"}}, {"type": "node", "id": 9770065665, "lat": 53.540037, "lon": 8.5835974, "tags": {"amenity": "waste_basket", "waste": "cigarettes;trash"}}, {"type": "node", "id": 9770065666, "lat": 53.540262, "lon": 8.5834791, "tags": {"amenity": "waste_basket", "waste": "cigarettes;trash"}}, {"type": "node", "id": 9809512819, "lat": 53.539637, "lon": 8.5865214}, {"type": "node", "id": 9809512820, "lat": 53.539422, "lon": 8.5866787}, {"type": "node", "id": 9809512824, "lat": 53.5400053, "lon": 8.584815}, {"type": "node", "id": 9809512921, "lat": 53.539412, "lon": 8.5862061}, {"type": "node", "id": 9809513017, "lat": 53.5394937, "lon": 8.5862419}, {"type": "node", "id": 9809513018, "lat": 53.5394623, "lon": 8.586445}, {"type": "node", "id": 9809513019, "lat": 53.5396006, "lon": 8.5867569}, {"type": "node", "id": 9809513024, "lat": 53.5399085, "lon": 8.5850196}, {"type": "node", "id": 9809513026, "lat": 53.5400843, "lon": 8.5845232}, {"type": "node", "id": 9809513319, "lat": 53.539988, "lon": 8.5847974}, {"type": "node", "id": 9828346026, "lat": 53.5418928, "lon": 8.5834275}, {"type": "node", "id": 9860517418, "lat": 53.540301, "lon": 8.58522, "tags": {"amenity": "bench", "backrest": "no"}}, {"type": "node", "id": 9860517517, "lat": 53.5402683, "lon": 8.5852642, "tags": {"amenity": "bench", "backrest": "no"}}, {"type": "node", "id": 9860517518, "lat": 53.5403241, "lon": 8.5852025, "tags": {"amenity": "bench", "backrest": "no"}}, {"type": "node", "id": 9860517519, "lat": 53.5402628, "lon": 8.5850832, "tags": {"amenity": "bench", "backrest": "no"}}, {"type": "node", "id": 9860517617, "lat": 53.5402436, "lon": 8.5852374, "tags": {"amenity": "bench", "backrest": "no"}}, {"type": "node", "id": 9860517717, "lat": 53.5402731, "lon": 8.585216, "tags": {"amenity": "bench", "backrest": "no"}}, {"type": "node", "id": 9860517718, "lat": 53.540293, "lon": 8.5850658, "tags": {"amenity": "bench", "backrest": "no"}}, {"type": "node", "id": 9860567617, "lat": 53.5388605, "lon": 8.5859328, "tags": {"entrance": "service"}}, {"type": "node", "id": 9860567817, "lat": 53.538795, "lon": 8.5860404}, {"type": "node", "id": 9883578456, "lat": 53.5407346, "lon": 8.582865}, {"type": "node", "id": 9883578457, "lat": 53.5404907, "lon": 8.5821462}, {"type": "node", "id": 9927832186, "lat": 53.5403187, "lon": 8.585058, "tags": {"amenity": "waste_basket", "waste": "trash"}}, {"type": "node", "id": 9927832187, "lat": 53.5403606, "lon": 8.5851865, "tags": {"amenity": "waste_basket", "waste": "trash"}}, {"type": "node", "id": 10745498622, "lat": 53.5407727, "lon": 8.5833575}, {"type": "node", "id": 10763680478, "lat": 53.5404987, "lon": 8.5846661, "tags": {"addr:housenumber": "25", "addr:street": "F\u00e4hrstra\u00dfe"}}, {"type": "node", "id": 10777812823, "lat": 53.5404114, "lon": 8.5844998}, {"type": "node", "id": 10899673527, "lat": 53.5418926, "lon": 8.5803426}, {"type": "node", "id": 10899673528, "lat": 53.5417519, "lon": 8.5804795}, {"type": "node", "id": 10901593618, "lat": 53.5406749, "lon": 8.5805295, "tags": {"addr:housenumber": "25", "addr:street": "Am Alten Hafen", "entrance": "yes"}}, {"type": "node", "id": 11005458347, "lat": 53.542139, "lon": 8.585776}, {"type": "node", "id": 11074994019, "lat": 53.5421659, "lon": 8.5855687}, {"type": "node", "id": 11074994020, "lat": 53.5421627, "lon": 8.5855137}, {"type": "node", "id": 11074994021, "lat": 53.5421324, "lon": 8.58557}, {"type": "node", "id": 11074994022, "lat": 53.5423348, "lon": 8.5854962}, {"type": "node", "id": 11074994023, "lat": 53.5423372, "lon": 8.5855975}, {"type": "node", "id": 11212478211, "lat": 53.5388272, "lon": 8.5819813}, {"type": "node", "id": 11212478212, "lat": 53.5388031, "lon": 8.5820121}, {"type": "node", "id": 11212478213, "lat": 53.5388521, "lon": 8.582121}, {"type": "node", "id": 11212478214, "lat": 53.5388762, "lon": 8.5820902}, {"type": "node", "id": 11212478215, "lat": 53.5388636, "lon": 8.5817588}, {"type": "node", "id": 11212478216, "lat": 53.5388404, "lon": 8.5817073}, {"type": "node", "id": 11212478217, "lat": 53.5388038, "lon": 8.581754}, {"type": "node", "id": 11212478218, "lat": 53.538827, "lon": 8.5818055}, {"type": "way", "id": 38421168, "nodes": [454156584, 7881814996, 7881815001, 454156588, 454156593, 1469026696, 1469026750, 9860567617, 454156598, 7881815000, 7881814999, 7881814997, 7881814998, 7881814993, 454156584], "tags": {"addr:city": "Bremerhaven", "addr:country": "DE", "addr:postcode": "27570", "addr:street": "An der Geeste", "building": "museum", "email": "info@historisches-museum-bremerhaven.de", "fax": "+49 471 5902700", "fee": "no", "museum": "local", "name": "Historisches Museum Bremerhaven", "opening_hours": "Tu-Su 10:00-17:00; Dec 24 off; Dec 31 off", "phone": "+49 471 308160", "tourism": "museum", "website": "https://www.historisches-museum-bremerhaven.de/", "wheelchair": "limited", "wikidata": "Q1352513", "wikipedia": "de:Historisches Museum Bremerhaven"}}, {"type": "way", "id": 41822135, "nodes": [516455160, 516455162, 516455164, 516455166, 516455160], "tags": {"addr:city": "Bremerhaven", "addr:country": "DE", "addr:housename": "Haus V", "addr:housenumber": "8", "addr:postcode": "27568", "addr:street": "An der Karlstadt", "building": "university", "building:levels": "5", "name": "Haus V", "roof:shape": "pyramidal", "wheelchair": "yes"}}, {"type": "way", "id": 41822139, "nodes": [516455222, 516455224, 516455226, 516455228, 516455222], "tags": {"building": "yes"}}, {"type": "way", "id": 55212569, "nodes": [694065086, 694065087, 694065090, 694065091, 694065086], "tags": {"addr:city": "Bremerhaven", "addr:housenumber": "24", "addr:postcode": "27568", "addr:street": "F\u00e4hrstra\u00dfe", "building": "retail", "building:levels": "1", "roof:shape": "flat", "wheelchair": "limited"}}, {"type": "way", "id": 79011323, "nodes": [923896842, 923896841, 923896839, 923896840, 923896842], "tags": {"access": "customers", "amenity": "parking", "capacity": "25", "fee": "yes", "name": "Torfplatz", "parking": "surface"}}, {"type": "way", "id": 102600823, "nodes": [2614868923, 4403708435, 4403708434, 1184831688, 4402095763, 4402095758, 2614868923], "tags": {"building": "apartments", "building:levels": "6", "roof:levels": "0"}}, {"type": "way", "id": 102600827, "nodes": [1184831680, 1184831681, 2671242536, 1184831692, 1184831696, 1184831680], "tags": {"addr:city": "Bremerhaven", "addr:country": "DE", "addr:housenumber": "48", "addr:postcode": "27568", "addr:street": "Deichstra\u00dfe", "building": "apartments", "building:levels": "15", "roof:shape": "flat"}}, {"type": "way", "id": 103328704, "nodes": [1193283019, 1193282978, 1193282999, 1193283021, 1193283019], "tags": {"addr:city": "Bremerhaven", "addr:country": "DE", "addr:housenumber": "25a", "addr:postcode": "27568", "addr:street": "Deichstra\u00dfe", "building": "apartments"}}, {"type": "way", "id": 103442546, "nodes": [1194424561, 1194424518, 1194424519, 1194424522, 2671242474, 1194424561], "tags": {"building": "office"}}, {"type": "way", "id": 103442771, "nodes": [1194427038, 1194427016, 1194427018, 1194427043, 1194427038], "tags": {"building": "yes"}}, {"type": "way", "id": 103443522, "nodes": [1194436489, 1194436470, 1194436488, 1194436486, 1194436489], "tags": {"abandoned": "yes", "addr:city": "Bremerhaven", "addr:country": "DE", "addr:housenumber": "1", "addr:postcode": "27570", "addr:street": "Ludwigstra\u00dfe", "building": "yes"}}, {"type": "way", "id": 108488813, "nodes": [8809392947, 8809381666, 8809392952, 1184831683, 4402090990, 1244655877, 1086741791, 1459862223, 4361943053, 8809392947], "tags": {"landuse": "commercial"}}, {"type": "way", "id": 108488926, "nodes": [2614868920, 1944961993, 3373343726, 1944961966, 1944961974, 2141707261, 10777812823, 2141707258, 1944961948, 8809381664, 8809381667, 8809381668, 2614868920], "tags": {"landuse": "retail"}}, {"type": "way", "id": 112148787, "nodes": [1275629457, 1275629431, 1459891002, 1275629456, 1275629422, 1275629419, 1275629454, 1275629438, 1275629457], "tags": {"access": "private", "amenity": "parking", "parking": "surface", "wheelchair": "yes"}}, {"type": "way", "id": 119952380, "nodes": [1346173784, 1346173783, 7902494712, 1346173780, 1346173786, 1346173784], "tags": {"building": "industrial"}}, {"type": "way", "id": 132706427, "nodes": [1459862201, 1459862194, 1459862222, 1459862203, 1459862181, 1459862199, 1459862217, 1459862215, 1459862201], "tags": {"access": "yes", "amenity": "parking", "fee": "yes", "parking": "surface", "wheelchair": "limited"}}, {"type": "way", "id": 132706429, "nodes": [1459862223, 1086741791, 1599957739, 1599957732, 4402084943, 4402084944, 1459862223], "tags": {"access": "private", "amenity": "parking", "parking": "surface"}}, {"type": "way", "id": 132707547, "nodes": [1459885044, 1459885046, 1459885041, 1459885045, 1459885044], "tags": {"building": "yes"}}, {"type": "way", "id": 132707548, "nodes": [516455215, 1459885042, 1459885043, 516455221, 516455215], "tags": {"addr:city": "Bremerhaven", "addr:country": "DE", "addr:housenumber": "4", "addr:postcode": "27568", "addr:street": "Karlsburg", "building": "museum", "name": "Kunsthalle"}}, {"type": "way", "id": 132708331, "nodes": [1459890998, 516455254, 2557299369, 2557299367, 516455256, 1459891001, 1459891009, 11212478214, 11212478211, 1459891006, 11212478218, 11212478215, 1459890999, 516455258, 516455259, 516455261, 516455263, 516455264, 516455252, 7902494708, 7902494707, 1459891004, 1459891018, 1459891021, 1459890998], "tags": {"addr:city": "Bremerhaven", "addr:country": "DE", "addr:housename": "Haus C", "addr:housenumber": "21", "addr:postcode": "27568", "addr:street": "Columbusstra\u00dfe", "building": "university", "name": "Haus C", "wheelchair": "yes"}}, {"type": "way", "id": 133081185, "nodes": [1464324676, 1464324674, 1464324677, 1464324673, 1464324676], "tags": {"building": "yes", "building:levels": "1"}}, {"type": "way", "id": 133183154, "nodes": [6516983346, 6516983345, 6516983344, 6516983343, 6516983342, 6516983341, 6516983340, 6516983339, 6516983338, 6516983337, 6516983346], "tags": {"landuse": "commercial"}}, {"type": "way", "id": 133467207, "nodes": [1469026700, 1469026737, 1469026758, 1469026760, 9809512820, 1469026700], "tags": {"building": "toilets"}}, {"type": "way", "id": 143704328, "nodes": [1572584414, 2666953121, 1572584416, 1572584412, 2666953117, 8303897823, 2666953115, 1572584409, 2666953067, 1572584414], "tags": {"access": "private", "amenity": "parking", "parking": "surface"}}, {"type": "way", "id": 146738750, "nodes": [1599957734, 1599957735, 1599957743, 2080102910, 2080102911, 1599957741, 1599957734], "tags": {"building": "garages"}}, {"type": "way", "id": 146738751, "nodes": [1599957732, 4402084133, 1599957730, 1599957747, 4402084130, 4402084136, 1599957739, 1599957732], "tags": {"addr:housenumber": "19", "addr:street": "Osterstra\u00dfe", "building": "apartments", "building:levels": "5", "roof:levels": "1", "roof:shape": "hipped"}}, {"type": "way", "id": 148246545, "nodes": [1613466097, 1857042877, 2389134648, 696590014, 696590015, 696590008, 1046428687, 1613466096, 7988217213, 7988217212, 7988217214, 10899673528, 1613466097], "tags": {"addr:city": "Bremerhaven", "addr:housenumber": "10", "addr:postcode": "27568", "addr:street": "B\u00fcrgermeister-Smidt-Stra\u00dfe", "building": "retail", "building:levels": "4", "height": "20 m", "name": "Hanse Carr\u00e9", "roof:levels": "0", "roof:shape": "flat"}}, {"type": "way", "id": 150674998, "nodes": [1635632508, 1635632515, 1635632512, 1635632520, 8685682868, 8685682867, 8685682866, 8685682865, 1635632526, 1635632509, 2671242525, 1635632507, 1635632510, 8066446044, 8066446045, 1635632508], "tags": {"addr:city": "Bremerhaven", "addr:country": "DE", "addr:housenumber": "21", "addr:postcode": "27568", "addr:street": "Deichstra\u00dfe", "amenity": "social_facility", "building": "yes", "building:levels": "5", "name": "AMARITA", "roof:shape": "flat", "social_facility": "nursing_home", "social_facility:for": "senior"}}, {"type": "way", "id": 159630459, "nodes": [8078940113, 8078940106, 8078940114, 8078940115, 2673139464, 2673139467, 1244661230, 2673139448, 1244661232, 1944898385, 1944898350, 8078940113], "tags": {"building": "apartments", "building:levels": "4", "roof:levels": "1", "roof:shape": "gabled"}}, {"type": "way", "id": 184063242, "nodes": [1717470994, 1944898299, 1944898339, 1944898344, 1944898350, 1944898348, 1944898351, 1944898385, 1244661232, 1944898391, 1944898347, 1944898341, 1944898334, 1944898337, 1944898304, 1944898307, 1944898311, 1944898318, 1944898314, 1944898271, 1944898262, 1944898254, 1944898250, 1944898242, 1944898247, 1944898245, 1944898234, 1944898232, 1944898221, 1944898228, 1944898175, 1944898099, 1944898151, 1944898008, 1944897969, 1944897981, 1944897962, 1944897950, 1944897914, 1944897904, 1944897996, 1944897987, 1944898003, 1944898012, 1944898047, 1944898016, 1944898056, 1944898050, 1944898061, 1944898065, 1944898076, 1944898073, 1944898079, 1944898082, 1944898092, 1944898089, 1944898094, 1944898096, 1944898131, 1944898107, 1944898135, 1944898139, 1944898159, 1944898154, 1944898163, 1944898168, 1944898181, 1944898179, 1944898185, 1944898187, 1944898190, 1944898193, 10901593618, 1717470983, 1717470994], "tags": {"building": "theatre", "description": "Kulturdenkmal, siehe http://wiki.openstreetmap.org/wiki/Bremen/Kulturdenkm%C3%A4ler", "heritage": "4", "heritage:operator": "lfd", "lfd:criteria": "ED", "ref:lfd": "1552", "source": "LfD Bremen", "website": "https://www.denkmalpflege.bremen.de/sixcms/detail.php?template=20_denkmal_wrapper_d&obj=00001552", "wikipedia": "de:Stadttheater Bremerhaven"}}, {"type": "way", "id": 184067337, "nodes": [1944961924, 1944961900, 1944961861, 1944961894, 1944961924], "tags": {"addr:city": "Bremerhaven", "addr:country": "DE", "addr:housenumber": "29", "addr:postcode": "27568", "addr:street": "An der Karlstadt", "building": "apartments", "building:levels": "3", "description": "Kulturdenkmal, siehe http://wiki.openstreetmap.org/wiki/Bremen/Kulturdenkm%C3%A4ler", "heritage": "4", "heritage:operator": "lfd", "lfd:criteria": "ED", "ref:lfd": "1522", "roof:shape": "gabled", "source": "LfD Bremen", "website": "https://www.denkmalpflege.bremen.de/sixcms/detail.php?template=20_denkmal_wrapper_d&obj=00001522", "wikidata": "Q46116852", "wikipedia": "de:Liste der Kulturdenkm\u00e4ler in Bremerhaven#1522"}}, {"type": "way", "id": 184067339, "nodes": [1944961941, 1944961934, 1944961902, 1944961926, 1944961928, 1944961941], "tags": {"addr:city": "Bremerhaven", "addr:country": "DE", "addr:housenumber": "31", "addr:postcode": "27568", "addr:street": "An der Karlstadt", "building": "apartments", "building:levels": "3", "description": "Kulturdenkmal, siehe http://wiki.openstreetmap.org/wiki/Bremen/Kulturdenkm%C3%A4ler", "heritage": "4", "heritage:operator": "lfd", "lfd:criteria": "ED", "ref:lfd": "1523", "roof:levels": "1", "roof:shape": "gabled", "source": "LfD Bremen", "website": "https://www.denkmalpflege.bremen.de/sixcms/detail.php?template=20_denkmal_wrapper_d&obj=00001523", "wikidata": "Q46116900", "wikipedia": "de:Liste der Kulturdenkm\u00e4ler in Bremerhaven#1523"}}, {"type": "way", "id": 184067341, "nodes": [1944961961, 1944961947, 1944961932, 1944961945, 1944961961], "tags": {"addr:city": "Bremerhaven", "addr:country": "DE", "addr:housenumber": "33", "addr:postcode": "27568", "addr:street": "An der Karlstadt", "building": "apartments", "building:levels": "2", "description": "Kulturdenkmal, siehe http://wiki.openstreetmap.org/wiki/Bremen/Kulturdenkm%C3%A4ler", "heritage": "4", "heritage:operator": "lfd", "lfd:criteria": "ED", "ref:lfd": "1524", "roof:levels": "1", "roof:shape": "gabled", "source": "LfD Bremen", "website": "https://www.denkmalpflege.bremen.de/sixcms/detail.php?template=20_denkmal_wrapper_d&obj=00001524", "wikidata": "Q46116939", "wikipedia": "de:Liste der Kulturdenkm\u00e4ler in Bremerhaven#1524"}}, {"type": "way", "id": 184067345, "nodes": [1944961993, 3373343726, 1944961966, 1944961974, 1944961949, 1944961968, 1944961993], "tags": {"addr:city": "Bremerhaven", "addr:country": "DE", "addr:housenumber": "35", "addr:postcode": "27568", "addr:street": "An der Karlstadt", "building": "hotel", "description": "Kulturdenkmal, siehe http://wiki.openstreetmap.org/wiki/Bremen/Kulturdenkm%C3%A4ler", "heritage": "4", "heritage:operator": "lfd", "lfd:criteria": "ED", "ref:lfd": "1525", "roof:shape": "flat", "source": "LfD Bremen", "website": "https://www.denkmalpflege.bremen.de/sixcms/detail.php?template=20_denkmal_wrapper_d&obj=00001525", "wikidata": "Q46116976", "wikipedia": "de:Liste der Kulturdenkm\u00e4ler in Bremerhaven#1525"}}, {"type": "way", "id": 184067350, "nodes": [1717517180, 516455192, 10763680478, 1944961985, 1944961980, 2616056329, 1944961948, 2141707258, 1944961976, 1944961995, 1717517180], "tags": {"building": "yes", "building:levels": "3", "description": "Kulturdenkmal, siehe http://wiki.openstreetmap.org/wiki/Bremen/Kulturdenkm%C3%A4ler", "heritage": "4", "heritage:operator": "lfd", "lfd:criteria": "ED", "ref:lfd": "1534", "roof:levels": "1", "roof:shape": "gabled", "source": "LfD Bremen", "website": "https://www.denkmalpflege.bremen.de/sixcms/detail.php?template=20_denkmal_wrapper_d&obj=00001534", "wikidata": "Q46117309", "wikipedia": "de:Wohnhaus Deichstra\u00dfe 38"}}, {"type": "way", "id": 184067352, "nodes": [1944961906, 1944961867, 9809513024, 9809513319, 9809512824, 1944961821, 1944961824, 1944961848, 1944961906], "tags": {"addr:housenumber": "15", "addr:street": "Deichstra\u00dfe", "building": "commercial", "building:levels": "2", "description": "Kulturdenkmal, siehe http://wiki.openstreetmap.org/wiki/Bremen/Kulturdenkm%C3%A4ler", "heritage": "4", "heritage:operator": "lfd", "lfd:criteria": "ED", "name": "Villa Seebeck", "ref:lfd": "3043", "roof:levels": "1", "roof:shape": "hipped", "source": "LfD Bremen", "wikidata": "Q46118580", "wikipedia": "de:Villa Seebeck"}}, {"type": "way", "id": 225291558, "nodes": [2340884991, 2340884989, 2340884990, 2340884993, 2340884994, 2671242556, 2340884991], "tags": {"addr:city": "Bremerhaven", "addr:country": "DE", "addr:housenumber": "12", "addr:postcode": "27568", "addr:street": "L\u00f6ningstra\u00dfe", "building": "apartments", "building:levels": "4", "roof:levels": "1", "roof:shape": "gabled"}}, {"type": "way", "id": 225291559, "nodes": [2340885000, 2671242575, 2340885006, 2340885004, 2340885002, 2671242566, 2340884995, 8066426419, 2340885000], "tags": {"addr:city": "Bremerhaven", "addr:country": "DE", "addr:housenumber": "7", "addr:postcode": "27568", "addr:street": "Prager Stra\u00dfe", "building": "apartments", "building:levels": "3", "roof:levels": "1", "roof:shape": "gabled"}}, {"type": "way", "id": 225291560, "nodes": [2340884993, 2340884998, 2340884996, 2340884992, 2340884990, 2340884993], "tags": {"addr:city": "Bremerhaven", "addr:country": "DE", "addr:housenumber": "14", "addr:postcode": "27568", "addr:street": "L\u00f6ningstra\u00dfe", "building": "apartments", "building:levels": "4", "roof:levels": "1"}}, {"type": "way", "id": 225291578, "nodes": [2340885005, 2340884997, 2340884992, 2340884996, 2340884999, 2340885003, 2340885005], "tags": {"addr:city": "Bremerhaven", "addr:housenumber": "2", "addr:postcode": "27568", "addr:street": "Kurze Stra\u00dfe", "building": "apartments", "building:levels": "4"}}, {"type": "way", "id": 230325009, "nodes": [2388422046, 2388422044, 2616402111, 661411592, 9530925028, 661411591, 2577451416, 2542120289, 1717470946, 2616402109, 2388422046], "tags": {"building": "yes", "name": "Havenhaus"}}, {"type": "way", "id": 230325010, "nodes": [2388422049, 2388422054, 2389134645, 2388422053, 2388422045, 2388422049], "tags": {"addr:city": "Bremerhaven", "addr:country": "DE", "addr:housenumber": "1", "addr:postcode": "27568", "addr:street": "Karlsburg", "building": "museum", "fee": "yes", "name": "Kunstmuseum", "opening_hours": "Tu-Fr 11:00-18:00;Sa-Su 11:00-17:00", "operator": "Kunstverein Bremerhaven", "tourism": "museum", "wheelchair": "yes", "wikidata": "Q15907275", "wikipedia": "de:Kunstmuseum Bremerhaven"}}, {"type": "way", "id": 230325013, "nodes": [2388422047, 2388422040, 2388422043, 2388422052, 2388422051, 2388422048, 2388422047], "tags": {"access": "private", "amenity": "parking", "parking": "surface"}}, {"type": "way", "id": 230391891, "nodes": [2389015950, 2389015960, 2389015965, 2389015958, 2389015950], "tags": {"addr:city": "Bremerhaven", "addr:country": "DE", "addr:housenumber": "13", "addr:postcode": "27568", "addr:street": "B\u00fcrgermeister-Smidt-Stra\u00dfe", "building": "apartments"}}, {"type": "way", "id": 230391892, "nodes": [2389015941, 2389015958, 2389015950, 2389015935, 2389015941], "tags": {"addr:city": "Bremerhaven", "addr:country": "DE", "addr:housenumber": "9-11", "addr:postcode": "27568", "addr:street": "B\u00fcrgermeister-Smidt-Stra\u00dfe", "building": "office"}}, {"type": "way", "id": 230391893, "nodes": [2389015983, 2389015992, 2389015986, 2389015975, 2389015983], "tags": {"addr:city": "Bremerhaven", "addr:country": "DE", "addr:housenumber": "10", "addr:postcode": "27568", "addr:street": "Schleswiger Stra\u00dfe", "building": "apartments"}}, {"type": "way", "id": 230391896, "nodes": [2389015985, 2389015971, 2389015967, 2389015981, 2389015985], "tags": {"building": "yes"}}, {"type": "way", "id": 230391898, "nodes": [8124597272, 8124597273, 2389015973, 2389015975, 2389015983, 2622219624, 8124597272], "tags": {"building": "apartments"}}, {"type": "way", "id": 230391899, "nodes": [2389015921, 2389015923, 2389015927, 2389015935, 2389015941, 2389015925, 2389015921], "tags": {"addr:city": "Bremerhaven", "addr:country": "DE", "addr:housenumber": "5", "addr:postcode": "27568", "addr:street": "B\u00fcrgermeister-Smidt-Stra\u00dfe", "building": "apartments"}}, {"type": "way", "id": 230391904, "nodes": [2389015929, 2389015939, 2389015925, 2389015921, 2389015920, 2389015917, 2389015929], "tags": {"addr:city": "Bremerhaven", "addr:country": "DE", "addr:housenumber": "14-18", "addr:postcode": "27568", "addr:street": "Theodor-Heuss-Platz", "building": "hotel", "building:levels": "6", "roof:shape": "flat"}}, {"type": "way", "id": 230391905, "nodes": [2389015965, 2389015967, 2389015981, 2389015977, 2389015969, 2389015960, 2389015965], "tags": {"addr:city": "Bremerhaven", "addr:country": "DE", "addr:housenumber": "15", "addr:postcode": "27568", "addr:street": "B\u00fcrgermeister-Smidt-Stra\u00dfe", "building": "apartments"}}, {"type": "way", "id": 230391907, "nodes": [2389015971, 2389015979, 2389015964, 2389015962, 2389015958, 2389015965, 2389015967, 2389015971], "tags": {"building": "apartments"}}, {"type": "way", "id": 230391908, "nodes": [2389015988, 2389016000, 2389016004, 2389015990, 2389015985, 2389015981, 2389015977, 2389015988], "tags": {"building": "yes"}}, {"type": "way", "id": 230391909, "nodes": [2389015969, 2389016002, 2389016008, 2389016010, 2389015999, 2389015994, 2389015988, 2389015977, 2389015969], "tags": {"addr:city": "Bremerhaven", "addr:country": "DE", "addr:housenumber": "17-19", "addr:postcode": "27568", "addr:street": "B\u00fcrgermeister-Smidt-Stra\u00dfe", "building": "apartments"}}, {"type": "way", "id": 230391913, "nodes": [2389015900, 2389015898, 2389015893, 2389015887, 2389015881, 2389015883, 2389015885, 2389015877, 2389015873, 2389015871, 2389015867, 2389015875, 2389015879, 2389015889, 2389015895, 2389015902, 2389015900], "tags": {"amenity": "fountain", "name": "Ludwig-Kr\u00fcder-Brunnen"}}, {"type": "way", "id": 249032347, "nodes": [2557299361, 2557299365, 2557299363, 2557299358, 2557299361], "tags": {"amenity": "parking", "parking": "surface"}}, {"type": "way", "id": 255797739, "nodes": [2614868915, 2614868918, 2614868916, 2614868914, 2614868872, 2614868866, 2614868844, 2614868843, 2614868837, 2614868833, 2614868831, 2614868829, 2614868825, 2614868822, 2614868820, 2614868819, 2614868821, 2614868823, 2614868824, 2614868818, 2614868815, 2618925661, 2614868813, 3375740215, 2614868817, 2614868827, 2614943238, 2614868834, 2614868826, 3375740217, 2614868869, 2614868894, 2614868905, 2614868901, 2614868915], "tags": {"addr:city": "Bremerhaven", "addr:country": "DE", "addr:housename": "Haus K", "addr:housenumber": "8", "addr:postcode": "27568", "addr:street": "An der Karlstadt", "building": "university", "building:levels": "4", "building:material": "brick", "name": "Haus K", "roof:levels": "0", "wheelchair": "yes"}}, {"type": "way", "id": 255797740, "nodes": [2614868922, 2614868923, 4402095758, 4402095762, 2614868922], "tags": {"addr:city": "Bremerhaven", "addr:country": "DE", "addr:housenumber": "16", "addr:postcode": "27568", "addr:street": "F\u00e4hrstra\u00dfe", "building": "apartments"}}, {"type": "way", "id": 255797741, "nodes": [4402095762, 2614868922, 1184831683, 4402091000, 4402090989, 4402090990, 4402084942, 4402095760, 4402095761, 4402095762], "tags": {"addr:city": "Bremerhaven", "addr:country": "DE", "addr:housenumber": "18", "addr:postcode": "27568", "addr:street": "F\u00e4hrstra\u00dfe", "building": "apartments"}}, {"type": "way", "id": 255799774, "nodes": [2614884250, 2614884245, 2614884243, 2614884238, 2614884242, 2614884244, 2614884246, 3374799712, 2614884247, 2614884256, 2614884254, 2614884255, 2614884253, 2614884251, 2614884250], "tags": {"addr:city": "Bremerhaven", "addr:country": "DE", "addr:housename": "Haus Z", "addr:postcode": "27568", "addr:street": "An der Karlstadt", "building": "university", "building:levels": "3", "building:material": "brick", "name": "Haus Z", "roof:levels": "2", "wheelchair": "yes"}}, {"type": "way", "id": 255805168, "nodes": [2614943246, 2614943254, 2614943262, 2614943257, 2614943246], "tags": {"addr:city": "Bremerhaven", "addr:country": "DE", "addr:housenumber": "18", "addr:postcode": "27568", "addr:street": "Deichstra\u00dfe", "building": "house", "building:levels": "3", "roof:orientation": "along", "roof:shape": "gabled"}}, {"type": "way", "id": 255805169, "nodes": [2614943280, 2614943284, 2614943289, 2614943285, 2614943280], "tags": {"addr:city": "Bremerhaven", "addr:country": "DE", "addr:housenumber": "30", "addr:postcode": "27568", "addr:street": "Deichstra\u00dfe", "building": "house", "building:levels": "3", "roof:orientation": "along", "roof:shape": "gabled"}}, {"type": "way", "id": 255805171, "nodes": [2614943259, 2614943266, 2614943275, 2614943270, 2614943259], "tags": {"addr:city": "Bremerhaven", "addr:country": "DE", "addr:housenumber": "22", "addr:postcode": "27568", "addr:street": "Deichstra\u00dfe", "building": "house", "building:levels": "3", "roof:orientation": "along", "roof:shape": "gabled"}}, {"type": "way", "id": 255805172, "nodes": [2614943236, 2614943240, 2614943249, 2614943244, 2614943236], "tags": {"addr:city": "Bremerhaven", "addr:country": "DE", "addr:housenumber": "14", "addr:postcode": "27568", "addr:street": "Deichstra\u00dfe", "building": "house", "building:levels": "3", "roof:orientation": "along", "roof:shape": "gabled"}}, {"type": "way", "id": 255805173, "nodes": [2614943254, 2614943259, 2614943270, 2614943262, 2614943254], "tags": {"addr:city": "Bremerhaven", "addr:country": "DE", "addr:housenumber": "20", "addr:postcode": "27568", "addr:street": "Deichstra\u00dfe", "building": "house", "building:levels": "3", "roof:orientation": "along", "roof:shape": "gabled"}}, {"type": "way", "id": 255805174, "nodes": [2614943271, 2614943277, 2614943282, 2614943279, 2614943271], "tags": {"addr:city": "Bremerhaven", "addr:country": "DE", "addr:housenumber": "26", "addr:postcode": "27568", "addr:street": "Deichstra\u00dfe", "building": "house", "building:levels": "3", "roof:orientation": "along", "roof:shape": "gabled"}}, {"type": "way", "id": 255805175, "nodes": [2614943266, 2614943271, 2614943279, 2614943275, 2614943266], "tags": {"addr:city": "Bremerhaven", "addr:country": "DE", "addr:housenumber": "24", "addr:postcode": "27568", "addr:street": "Deichstra\u00dfe", "building": "house", "building:levels": "3", "roof:orientation": "along", "roof:shape": "gabled"}}, {"type": "way", "id": 255805177, "nodes": [2614943240, 2614943246, 2614943257, 2614943249, 2614943240], "tags": {"addr:city": "Bremerhaven", "addr:country": "DE", "addr:housenumber": "16", "addr:postcode": "27568", "addr:street": "Deichstra\u00dfe", "building": "house", "building:levels": "3", "roof:orientation": "along", "roof:shape": "gabled"}}, {"type": "way", "id": 255805178, "nodes": [2614943277, 2614943280, 2614943285, 2614943282, 2614943277], "tags": {"addr:city": "Bremerhaven", "addr:country": "DE", "addr:housenumber": "28", "addr:postcode": "27568", "addr:street": "Deichstra\u00dfe", "building": "house", "building:levels": "3", "roof:orientation": "along", "roof:shape": "gabled"}}, {"type": "way", "id": 255805180, "nodes": [2614943231, 2614943233, 2614943234, 2614943243, 2614943256, 2614943253, 2614943261, 2614943251, 2614943248, 2614943241, 2614943244, 2614943236, 2614943219, 2614943224, 2614943226, 2614943223, 2614943228, 2614943229, 2614943231], "tags": {"addr:city": "Bremerhaven", "addr:country": "DE", "addr:housename": "Haus M", "addr:housenumber": "10", "addr:postcode": "27568", "addr:street": "An der Karlstadt", "building": "university", "building:levels": "6", "building:material": "brick", "name": "Haus M", "wheelchair": "yes"}}, {"type": "way", "id": 255894514, "nodes": [2616071042, 2616071035, 2616071032, 2616071030, 2616071029, 2616071041, 2616071043, 2616071042], "tags": {"addr:city": "Bremerhaven", "addr:country": "DE", "addr:housenumber": "11", "addr:postcode": "27568", "addr:street": "Theodor-Heuss-Platz", "building": "apartments", "building:levels": "4", "roof:levels": "1", "roof:shape": "gabled"}}, {"type": "way", "id": 255894515, "nodes": [2616071044, 2616071042, 2616071043, 8023031680, 8023031679, 8023031675, 8023031678, 2616071045, 2616071044], "tags": {"addr:city": "Bremerhaven", "addr:country": "DE", "addr:housenumber": "13", "addr:postcode": "27568", "addr:street": "Theodor-Heuss-Platz", "building": "apartments", "building:levels": "4", "roof:levels": "1", "roof:shape": "gabled"}}, {"type": "way", "id": 255894516, "nodes": [2616071051, 2616071048, 2616071047, 2616071050, 2616071051], "tags": {"addr:city": "Bremerhaven", "addr:country": "DE", "addr:housenumber": "17", "addr:postcode": "27568", "addr:street": "Theodor-Heuss-Platz", "building": "apartments", "building:levels": "4", "roof:levels": "1", "roof:shape": "gabled"}}, {"type": "way", "id": 255894517, "nodes": [2616071055, 2616071058, 2616071063, 2616071059, 2616071055], "tags": {"addr:city": "Bremerhaven", "addr:country": "DE", "addr:housenumber": "3", "addr:postcode": "27568", "addr:street": "L\u00f6ningstra\u00dfe", "building": "apartments"}}, {"type": "way", "id": 255894518, "nodes": [2616071053, 2616071057, 2616071054, 2616071050, 2616071051, 2616071053], "tags": {"addr:city": "Bremerhaven", "addr:country": "DE", "addr:housenumber": "19", "addr:postcode": "27568", "addr:street": "Theodor-Heuss-Platz", "building": "apartments", "building:levels": "4", "roof:levels": "1", "roof:shape": "gabled"}}, {"type": "way", "id": 255894519, "nodes": [2616071057, 2616071059, 2616071055, 2616071053, 2616071057], "tags": {"addr:city": "Bremerhaven", "addr:country": "DE", "addr:housenumber": "1", "addr:postcode": "27568", "addr:street": "L\u00f6ningstra\u00dfe", "building": "apartments"}}, {"type": "way", "id": 255894520, "nodes": [2616071063, 2616071065, 2616071061, 2616071056, 2616071058, 2616071063], "tags": {"addr:city": "Bremerhaven", "addr:country": "DE", "addr:housenumber": "5", "addr:postcode": "27568", "addr:street": "L\u00f6ningstra\u00dfe", "building": "apartments", "building:levels": "6", "roof:levels": "0", "roof:shape": "flat"}}, {"type": "way", "id": 255894521, "nodes": [2616071047, 2616071044, 2616071045, 2616071049, 2616071048, 2616071047], "tags": {"addr:city": "Bremerhaven", "addr:country": "DE", "addr:housenumber": "15", "addr:postcode": "27568", "addr:street": "Theodor-Heuss-Platz", "building": "apartments", "building:levels": "4", "roof:levels": "1", "roof:shape": "gabled"}}, {"type": "way", "id": 255894522, "nodes": [2616071025, 2616071027, 2616071034, 2616071036, 2616071039, 2616071026, 2616071025], "tags": {"addr:city": "Bremerhaven", "addr:country": "DE", "addr:housenumber": "2-4", "addr:postcode": "27568", "addr:street": "F\u00e4hrstra\u00dfe", "building": "apartments", "building:levels": "5", "roof:levels": "1", "roof:shape": "gabled"}}, {"type": "way", "id": 255894524, "nodes": [2616071026, 2616071028, 2616071029, 2616071041, 2616071038, 2616071040, 2616071039, 2616071026], "tags": {"addr:city": "Bremerhaven", "addr:country": "DE", "addr:housenumber": "9", "addr:postcode": "27568", "addr:street": "Theodor-Heuss-Platz", "building": "apartments"}}, {"type": "way", "id": 255921143, "nodes": [2616320499, 2616320485, 2616320483, 2616320491, 2616320464, 2616320470, 2616320438, 2616320420, 2616320405, 2616320397, 2616320391, 2616320387, 2616320385, 2616320376, 2616320368, 2616320364, 2616320360, 2616320358, 2616320354, 2616320350, 2616320348, 2616320352, 2616320356, 2616320362, 2616320366, 2616320370, 2616320372, 2616320374, 2616320379, 2616320381, 2616320383, 2616320393, 2616320399, 2616320412, 2616320418, 2616320428, 2616320436, 2616320444, 2616320448, 2616320454, 2616320460, 2616320462, 2616320471, 2616320478, 2616320487, 2616320493, 2616320504, 2616320499], "tags": {"addr:city": "Bremerhaven", "addr:country": "DE", "addr:housenumber": "26", "addr:postcode": "27568", "addr:street": "Am Alten Hafen", "alt_name": "Gebaeude D", "building": "yes", "building:material": "brick", "name": "Alfred-Wegener-Institut, Helmholtz-Zentrum f\u00fcr Polar- und Meeresforschung", "office": "research", "short_name": "AWI", "source": "Bing", "wikipedia": "de:Alfred-Wegener-Institut"}}, {"type": "way", "id": 255922374, "nodes": [2616329389, 2616329391, 2616329397, 661411590, 2616329412, 2616329411, 2616329407, 2616329408, 2616329404, 2616329400, 2616329399, 2616329390, 2616329387, 8944832892, 2616329389], "tags": {"addr:city": "Bremerhaven", "addr:country": "DE", "addr:housename": "Haus S", "addr:housenumber": "7", "addr:postcode": "27568", "addr:street": "Karlsburg", "building": "university", "building:levels": "6", "name": "Haus S", "wheelchair": "yes"}}, {"type": "way", "id": 255922376, "nodes": [2616329384, 2616329386, 8944832896, 8944832897, 2616329396, 2616329395, 2616329393, 2616329392, 1459873383, 1459873379, 2616329384], "tags": {"addr:city": "Bremerhaven", "addr:country": "DE", "addr:housename": "Haus T", "addr:postcode": "27568", "addr:street": "Karlsburg", "building": "university", "building:levels": "4", "name": "Haus T", "wheelchair": "yes"}}, {"type": "way", "id": 255928877, "nodes": [2616402109, 2616402107, 2616402111, 2388422046, 2616402109], "tags": {"addr:city": "Bremerhaven", "addr:country": "DE", "addr:housenumber": "1", "addr:postcode": "27568", "addr:street": "Karlsburg", "amenity": "cinema", "building:part": "yes", "name": "CineMotion", "operator": "K-motion GmbH & Co. KG", "website": "https://www.cinemotion-kino.de/bremerhaven", "wheelchair": "yes", "wikidata": "Q50843712"}}, {"type": "way", "id": 255928878, "nodes": [2616402171, 516455233, 516455235, 516455248, 2616402175, 9180287895, 2616402171], "tags": {"building": "office", "building:levels": "4", "height": "20 m"}}, {"type": "way", "id": 255928879, "nodes": [516455250, 9493227311, 3517361946, 516455240, 516455242, 2616402177, 2616402175, 516455248, 3554579892, 516455250], "tags": {"building": "apartments", "building:levels": "5"}}, {"type": "way", "id": 256573529, "nodes": [2622219634, 2389015990, 2389016004, 2389016014, 2389016025, 2389016033, 2622219636, 2389015992, 2389015986, 2622219634], "tags": {"access": "private", "amenity": "parking", "parking": "surface"}}, {"type": "way", "id": 261072847, "nodes": [2666910678, 2666910681, 2666910672, 2666910675, 2666910667, 2666910668, 2666910661, 2666910659, 2671242477, 2671242475, 2666910676, 2666910677, 2666910678], "tags": {"building": "garages"}}, {"type": "way", "id": 261072850, "nodes": [2666910713, 2666910717, 2666910722, 2666910725, 2666910732, 2666910724, 2666910729, 2666910721, 2666910693, 2666910697, 2666910701, 2666910703, 2666910694, 2666910707, 2666910699, 2666910696, 2666910704, 2666910698, 2666910708, 2666910700, 2666910710, 2666910705, 2666910712, 2666910714, 2666910727, 2666910726, 2666910736, 2666910737, 2666910745, 2666910744, 2666910750, 2666910751, 2666910760, 2666910759, 2671242560, 2666910762, 2666910773, 2671242564, 2666910765, 2666910766, 2666910767, 2671242487, 2666910768, 2666910764, 2666910761, 2666910748, 2666910749, 2666910755, 2671242485, 2666910756, 2666910747, 2666910746, 2666910734, 2666910735, 2666910738, 2671242479, 2666910739, 2666910733, 2666910731, 2666910718, 2666910709, 2849835507, 2666910713], "tags": {"building": "apartments", "building:levels": "5"}}, {"type": "way", "id": 261072854, "nodes": [2666910690, 2666910684, 2666910682, 2666910678, 2666910677, 2666910676, 2671242475, 2671242477, 2666910659, 2666910658, 2666910654, 2666910652, 2666910656, 2666910657, 2666910663, 2666910662, 2666910665, 2666910666, 2666910674, 2666910673, 2666910680, 2666910685, 2666910687, 2666910688, 2666910686, 2666910690], "tags": {"building": "apartments"}}, {"type": "way", "id": 261072858, "nodes": [2666910653, 2666910650, 2666910647, 2666910648, 2666910653], "tags": {"building": "garages"}}, {"type": "way", "id": 261072867, "nodes": [2666910652, 2666910654, 2666910648, 2666910647, 2666910645, 2666910652], "tags": {"addr:city": "Bremerhaven", "addr:country": "DE", "addr:housenumber": "50", "addr:postcode": "27568", "addr:street": "Deichstra\u00dfe", "building": "apartments", "building:levels": "4", "roof:levels": "0", "roof:shape": "flat"}}, {"type": "way", "id": 261072871, "nodes": [4361947032, 2666910679, 2666910683, 2666910706, 2666910689, 2671242469, 2671242500, 2671242512, 4361947032], "tags": {"building": "apartments", "building:levels": "3", "roof:levels": "1", "roof:shape": "gabled"}}, {"type": "way", "id": 261072877, "nodes": [2666910779, 2666910772, 2666910757, 2666910758, 2666910763, 2666910779], "tags": {"addr:city": "Bremerhaven", "addr:country": "DE", "addr:housenumber": "17", "addr:postcode": "27568", "addr:street": "L\u00f6ningstra\u00dfe", "building": "apartments", "building:levels": "5", "roof:levels": "0", "roof:shape": "flat"}}, {"type": "way", "id": 261072879, "nodes": [2666910664, 2671242496, 2666910670, 2666910669, 2666910660, 2671242540, 2671242506, 2666910649, 2666910655, 2671242518, 2671242542, 2666910664], "tags": {"building": "apartments", "building:levels": "3", "roof:levels": "2", "roof:shape": "gabled"}}, {"type": "way", "id": 261072881, "nodes": [2666910763, 2666910769, 2671242464, 2671242461, 2666910741, 2666910728, 2666910723, 2666910758, 2666910763], "tags": {"building": "apartments", "building:levels": "4", "roof:levels": "1", "roof:shape": "gabled"}}, {"type": "way", "id": 261072886, "nodes": [2666910741, 2666910730, 2666910702, 2666910715, 2666910719, 2666910728, 2666910741], "tags": {"addr:city": "Bremerhaven", "addr:country": "DE", "addr:housenumber": "11", "addr:postcode": "27568", "addr:street": "L\u00f6ningstra\u00dfe", "building": "apartments", "building:levels": "6", "roof:levels": "0", "roof:shape": "flat"}}, {"type": "way", "id": 261072893, "nodes": [2666910679, 9251098883, 2666910740, 2666910711, 2666910695, 2666910692, 2666910691, 2666910683, 2666910679], "tags": {"building": "yes"}}, {"type": "way", "id": 261072901, "nodes": [2666910639, 4402092843, 2666910643, 2666910642, 2666910637, 2671242523, 4402090993, 4402090992, 2666910638, 4402090994, 4402090995, 4402090997, 4402090996, 4402090999, 4402090998, 4402091000, 4402090989, 4402090990, 1244655877, 2666910639], "tags": {"addr:city": "Bremerhaven", "addr:country": "DE", "addr:housenumber": "20", "addr:postcode": "27568", "addr:street": "F\u00e4hrstra\u00dfe", "building": "government", "building:levels": "4", "building:levels:underground": "1", "name": "Technisches Rathaus Bremerhaven", "operator": "Stadt Bremerhaven", "smoking": "outside", "wheelchair": "yes"}}, {"type": "way", "id": 261078248, "nodes": [2666953069, 1572584412, 2666953117, 2666953062, 2666953069], "tags": {"addr:city": "Bremerhaven", "addr:country": "DE", "addr:housenumber": "8", "addr:postcode": "27568", "addr:street": "Prager Stra\u00dfe", "building": "apartments"}}, {"type": "way", "id": 261078249, "nodes": [2666953060, 2666953069, 2666953062, 2666953054, 2666953060], "tags": {"addr:city": "Bremerhaven", "addr:country": "DE", "addr:housenumber": "6", "addr:postcode": "27568", "addr:street": "Prager Stra\u00dfe", "building": "yes"}}, {"type": "way", "id": 261078250, "nodes": [2666953041, 2666953046, 2666953058, 2666953050, 2666953041], "tags": {"addr:city": "Bremerhaven", "addr:country": "DE", "addr:housenumber": "4", "addr:postcode": "27568", "addr:street": "Prager Stra\u00dfe", "building": "apartments", "building:levels": "4", "roof:levels": "1", "roof:shape": "gabled"}}, {"type": "way", "id": 261078252, "nodes": [2666953071, 1572584414, 2666953067, 2666953063, 2666953071], "tags": {"building": "yes"}}, {"type": "way", "id": 261078253, "nodes": [2666953033, 2666953039, 2666953035, 2666953031, 2666953033], "tags": {"addr:city": "Bremerhaven", "addr:country": "DE", "addr:housenumber": "2-4", "addr:postcode": "27568", "addr:street": "L\u00f6ningstra\u00dfe", "building": "apartments", "building:levels": "4"}}, {"type": "way", "id": 261078254, "nodes": [1572584414, 2666953122, 2666953119, 2666953065, 2666953071, 1572584414], "tags": {"building": "yes"}}, {"type": "way", "id": 261078255, "nodes": [8303897820, 2666953045, 2666953048, 2666953052, 8303897819, 8303897820], "tags": {"addr:city": "Bremerhaven", "addr:country": "DE", "addr:housenumber": "3", "addr:postcode": "27568", "addr:street": "Schleswiger Stra\u00dfe", "building": "yes"}}, {"type": "way", "id": 261078256, "nodes": [2666953033, 2666953041, 2666953050, 2666953043, 2666953039, 2666953033], "tags": {"addr:city": "Bremerhaven", "addr:country": "DE", "addr:housenumber": "6-8", "addr:postcode": "27568", "addr:street": "L\u00f6ningstra\u00dfe", "building": "apartments", "building:levels": "4"}}, {"type": "way", "id": 261078257, "nodes": [2666953048, 2666953052, 2666953057, 1572584409, 2666953059, 2666953048], "tags": {"building": "yes"}}, {"type": "way", "id": 261078259, "nodes": [1572584409, 2666953057, 2666953056, 2666953061, 8303897821, 2666953115, 1572584409], "tags": {"building": "yes"}}, {"type": "way", "id": 261078260, "nodes": [2666953045, 2666953065, 2666953071, 2666953063, 2666953059, 2666953048, 2666953045], "tags": {"addr:city": "Bremerhaven", "addr:country": "DE", "addr:housenumber": "5", "addr:postcode": "27568", "addr:street": "Schleswiger Stra\u00dfe", "building": "hotel"}}, {"type": "way", "id": 261518862, "nodes": [2671242526, 2671242530, 2671242532, 2671242535, 2671242527, 2671242526], "tags": {"access": "private", "amenity": "parking", "parking": "surface"}}, {"type": "way", "id": 261518863, "nodes": [2666910670, 2616071061, 2616071056, 2671242546, 2671242541, 2666910669, 2666910670], "tags": {"access": "private", "amenity": "parking", "parking": "surface"}}, {"type": "way", "id": 288929916, "nodes": [2924827244, 2924827252, 2924827251, 2924827242, 2924827244], "tags": {"addr:city": "Bremerhaven", "addr:housenumber": "3", "addr:postcode": "27570", "addr:street": "Bussestra\u00dfe", "building": "apartments", "building:levels": "5", "roof:levels": "1"}}, {"type": "way", "id": 288929937, "nodes": [2924827242, 2924827244, 2924827232, 2924827231, 2924827230, 2924827242], "tags": {"addr:city": "Bremerhaven", "addr:housenumber": "5", "addr:postcode": "27570", "addr:street": "Bussestra\u00dfe", "building": "apartments", "building:levels": "5", "roof:levels": "0", "roof:shape": "flat"}}, {"type": "way", "id": 330371173, "nodes": [3373343723, 3373343724, 3373343719, 3373343720, 3373343718, 3373343722, 3373343725, 3373343731, 516455192, 1717517180, 3373343723], "tags": {"addr:city": "Bremerhaven", "addr:country": "DE", "addr:housenumber": "23", "addr:postcode": "27568", "addr:street": "F\u00e4hrstra\u00dfe", "building": "yes", "building:levels": "3", "roof:levels": "1", "roof:shape": "gabled"}}, {"type": "way", "id": 330371175, "nodes": [3373343728, 1944961966, 3373343726, 3373343729, 3373343730, 3373343733, 3373343732, 3373343731, 3373343725, 3373343727, 3373343728], "tags": {"addr:city": "Bremerhaven", "addr:country": "DE", "addr:housenumber": "21", "addr:postcode": "27568", "addr:street": "F\u00e4hrstra\u00dfe", "building": "yes", "building:levels": "4", "roof:shape": "flat"}}, {"type": "way", "id": 330514763, "nodes": [516455219, 3374799715, 1459885043, 1459885042, 3374799710, 516455217, 516455219], "tags": {"addr:city": "Bremerhaven", "addr:country": "DE", "addr:housename": "Haus L", "addr:housenumber": "8", "addr:postcode": "27568", "addr:street": "An der Karlstadt", "building": "university", "building:levels": "3", "building:material": "brick", "name": "Haus L", "wheelchair": "yes"}}, {"type": "way", "id": 344862690, "nodes": [3515911008, 3515911010, 3515911013, 3515911011, 3515911008], "tags": {"amenity": "shelter"}}, {"type": "way", "id": 344862693, "nodes": [3515911023, 3515911024, 3515911026, 3515911025, 3515911023], "tags": {"amenity": "shelter"}}, {"type": "way", "id": 344873340, "nodes": [2616329412, 2616329411, 2616329407, 1459873381, 8944832895, 8944832896, 2616329386, 2616329384, 1459873379, 8944832891, 8944832898, 2616329389, 2616329391, 2616329397, 661411590, 2616329412]}, {"type": "way", "id": 344873341, "nodes": [7902494702, 7902494703, 7902494704, 8890552597, 7902494705, 7902494706, 7902494702]}, {"type": "way", "id": 344873342, "nodes": [2614943218, 2614943219, 2614943236, 2614943244, 2614943251, 2614943261, 2614943264, 2614884238, 2614884243, 2614884245, 2614884250, 2614884251, 2614884254, 2614884256, 10745498622, 516455240, 516455219, 3374799715, 3374799710, 516455217, 516455173, 3516032323, 2614943221, 2614943218]}, {"type": "way", "id": 392930599, "nodes": [9809513026, 3961218239, 3961218238, 3961218240, 9809513026], "tags": {"access": "customers", "amenity": "parking", "fee": "no", "parking": "surface"}}, {"type": "way", "id": 438450159, "nodes": [4361943053, 2666910643, 4402092843, 2666910639, 1244655877, 1086741791, 1459862223, 4361943053], "tags": {"access": "private", "amenity": "parking", "parking": "surface"}}, {"type": "way", "id": 441105341, "nodes": [4388662788, 4388662989, 4388662990, 4388662991, 4388662992, 4388662994, 4388662788], "tags": {"building": "yes"}}, {"type": "way", "id": 442529159, "nodes": [4402084141, 4402084142, 2666910651, 2666910644, 4402095757, 8023031672, 8023031671, 8830501826, 4402084139, 4402095763, 4402095758, 1599957734, 4402084130, 1599957747, 1599957730, 4402084138, 4402084141], "tags": {"access": "private", "amenity": "parking", "parking": "surface"}}, {"type": "way", "id": 442529745, "nodes": [4402088178, 4402088179, 4402088180, 4402088181, 4402088178], "tags": {"amenity": "recycling", "location": "overground", "recycling_type": "container"}}, {"type": "way", "id": 442531937, "nodes": [4402095762, 4402106379, 4402106380, 4402106381, 4402095760, 4402095761, 4402095762], "tags": {"building": "garages"}}, {"type": "way", "id": 738018910, "nodes": [516459461, 9883578456, 9883578457, 1680804462, 6516983332, 1680564105, 6516983336, 6516983335, 6516983334, 6516983333, 6910330829, 6910330835, 6910330831, 6910330833, 6910330828, 6910330834, 6910330836, 6910330832, 9358561135, 1346179000, 8941282126, 29760210, 1338156328, 2003093459, 2003093462, 2003093463, 1338156327, 1834233682, 5940986985, 1834233677, 1834233676, 8890461395, 1834233679, 4402095768, 4402095757, 8023031672, 8023031671, 8830501826, 4402084139, 4402095763, 4402095758, 4402095762, 4402095761, 4402095760, 4402106381, 4402090990, 1184831683, 8809392952, 8809392951, 516459461], "tags": {"landuse": "retail"}}, {"type": "way", "id": 846877967, "nodes": [7902494712, 7902494711, 7902494710, 7902494709, 1346173780, 7902494712], "tags": {"building": "office"}}, {"type": "way", "id": 856782484, "nodes": [7988217214, 7988217216, 10899673527, 7988217215, 1613466097, 10899673528, 7988217214], "tags": {"addr:housenumber": "12", "addr:street": "B\u00fcrgermeister-Smidt-Stra\u00dfe", "building": "apartments"}}, {"type": "way", "id": 860806362, "nodes": [8023031674, 8023031673, 8023031678, 2616071045, 2616071049, 8023031674], "tags": {"building": "yes"}}, {"type": "way", "id": 860806363, "nodes": [8023031677, 8023031676, 8023031675, 8023031678, 8023031673, 8023031677], "tags": {"building": "yes"}}, {"type": "way", "id": 860806364, "nodes": [8023049086, 8023049085, 8023031684, 8023031683, 8023031682, 8023031681, 8023049086], "tags": {"building": "shed"}}, {"type": "way", "id": 865415129, "nodes": [8066426419, 8066426418, 8066426417, 2340884995, 8066426419], "tags": {"building": "garages"}}, {"type": "way", "id": 865419018, "nodes": [8066446057, 8066446056, 8066446055, 8066446054, 8066446053, 8066446052, 8066446051, 8066446050, 8066446049, 8883612462, 8066446048, 8066446047, 8883612461, 8066446046, 8066446057], "tags": {"building": "apartments", "building:levels": "5", "roof:levels": "0", "roof:shape": "flat"}}, {"type": "way", "id": 866756292, "nodes": [8078940108, 8078940107, 8078940106, 8078940113, 1944898350, 1944898344, 8078940105, 8078940108], "tags": {"building": "yes"}}, {"type": "way", "id": 866756293, "nodes": [1244661237, 8078940115, 8078940114, 8078940112, 8078940111, 8078940110, 8078940109, 1717470994, 1717470983, 1244661237], "tags": {"building": "yes"}}, {"type": "way", "id": 872309307, "nodes": [8124597266, 2389015939, 2389015925, 2389015941, 8124597267, 8124597265, 8124597264, 8124597266], "tags": {"amenity": "parking"}}, {"type": "way", "id": 872309308, "nodes": [2389015962, 8124597269, 8124597268, 8124597267, 2389015941, 2389015958, 2389015962], "tags": {"building": "apartments"}}, {"type": "way", "id": 872309309, "nodes": [2622219618, 8124597271, 8124597270, 8124597273, 8124597272, 2622219618], "tags": {"building": "apartments"}}, {"type": "way", "id": 875450763, "nodes": [8148609435, 8148609432, 8148609431, 9860567817, 8148609430, 8148609435], "tags": {"addr:city": "Bremerhaven", "addr:housenumber": "6a", "addr:postcode": "27570", "addr:street": "Bussestra\u00dfe", "building": "yes"}}, {"type": "way", "id": 875450764, "nodes": [4388662994, 8148609436, 8148609437, 8148609433, 4388662788, 4388662994], "tags": {"addr:city": "Bremerhaven", "addr:housenumber": "4a", "addr:postcode": "27570", "addr:street": "Bussestra\u00dfe", "building": "house", "building:levels": "2", "roof:levels": "1", "roof:shape": "gabled"}}, {"type": "way", "id": 875450765, "nodes": [8148609437, 8148609436, 8148609435, 8148609430, 8148609434, 8148609437], "tags": {"addr:city": "Bremerhaven", "addr:housenumber": "5a", "addr:postcode": "27570", "addr:street": "Bussestra\u00dfe", "building": "house", "building:levels": "2", "roof:levels": "1", "roof:shape": "saltbox"}}, {"type": "way", "id": 893445522, "nodes": [8303897823, 8303897822, 8303897821, 2666953115, 8303897823], "tags": {"building": "yes"}}, {"type": "way", "id": 937417122, "nodes": [8685682892, 8685682891, 8685682890, 8685682889, 8685682888, 8685682887, 8685682892], "tags": {"building": "yes"}}, {"type": "way", "id": 1002381155, "nodes": [9251098887, 4361947032, 2666910679, 9251098886, 9251098885, 9251098884, 9251098887], "tags": {"addr:city": "Bremerhaven", "addr:housenumber": "10", "addr:postcode": "27568", "addr:street": "Osterstra\u00dfe", "building": "apartments"}}, {"type": "way", "id": 1029326596, "nodes": [2614943289, 9489936247, 2141707258, 1944961948, 9489936246, 2614943284, 2614943289], "tags": {"addr:city": "Bremerhaven", "addr:country": "DE", "addr:housenumber": "32", "addr:postcode": "27568", "addr:street": "Deichstra\u00dfe", "building": "house", "building:levels": "3", "roof:shape": "gabled"}}, {"type": "way", "id": 1046211561, "nodes": [9621126503, 9621126502, 9621126501, 9621126500, 9621126503], "tags": {"amenity": "parking_space", "parking_space": "disabled"}}, {"type": "way", "id": 1068617854, "nodes": [9809513019, 9809512819, 9809513018, 9809513017, 9809512921, 1469026758, 1469026760, 9809512820, 9809513019], "tags": {"building": "yes"}}, {"type": "way", "id": 1071017520, "nodes": [9828346026, 2666910702, 2666910715, 2666910706, 2666910689, 9828346026], "tags": {"building": "yes", "building:levels": "1", "roof:levels": "0", "roof:shape": "flat"}}, {"type": "way", "id": 1184798825, "nodes": [11005458347, 11074994021, 11074994019, 11074994020, 11074994022, 11074994023, 2666910775, 2666910780, 11005458347], "tags": {"addr:city": "Bremerhaven", "addr:housenumber": "52", "addr:postcode": "27568", "addr:street": "Deichstra\u00dfe", "building": "yes"}}, {"type": "way", "id": 1210301473, "nodes": [11212478214, 11212478213, 11212478212, 11212478211, 11212478214], "tags": {"building": "yes"}}, {"type": "way", "id": 1210301474, "nodes": [11212478218, 11212478217, 11212478216, 11212478215, 11212478218], "tags": {"building": "yes"}}, {"type": "relation", "id": 2528126, "members": [{"type": "node", "ref": 2548885053, "role": ""}, {"type": "node", "ref": 828484204, "role": ""}, {"type": "node", "ref": 828484206, "role": ""}, {"type": "node", "ref": 250800672, "role": ""}, {"type": "node", "ref": 1983703917, "role": ""}, {"type": "node", "ref": 828484203, "role": ""}, {"type": "node", "ref": 828059556, "role": ""}, {"type": "node", "ref": 583834260, "role": ""}, {"type": "node", "ref": 828484207, "role": ""}, {"type": "relation", "ref": 3431722, "role": ""}], "tags": {"amenity": "library", "name": "Staats- und Universit\u00e4tsbibliothek Bremen", "site": "university", "type": "site"}}, {"type": "relation", "id": 3432334, "members": [{"type": "way", "ref": 344873342, "role": "outer"}, {"type": "way", "ref": 344873340, "role": "outer"}, {"type": "way", "ref": 344873341, "role": "outer"}], "tags": {"amenity": "university", "name": "Hochschule Bremerhaven", "short_name": "HS Bremerhaven", "type": "multipolygon", "website": "https://www.hs-bremerhaven.de/", "wikidata": "Q1622093", "wikipedia": "de:Hochschule Bremerhaven"}}]}